id,objectid,nombre,direccion,tipozona,so2,no2,o3,co,pm10,pm25,tipoemisio,fecha_carg,calidad_am,fiwareid,lon,lat,created_at
1,13,Francia,AVDA.FRANCIA,Urbana,1,16,26,0,16,4,Tráfico,2025-11-27 11:00:00,Buena,A01_AVFRANCIA_60m,39.4578268875183,-0.342986232422652,2025-11-27 11:41:06.529964
2,19,Centro,VALÈNCIA CENTRE,Urbana,,18,,,15,4,Tráfico,2025-11-27 11:00:00,Buena,A07_VALENCIACENTRE_60m,39.4705476702601,-0.376397651655324,2025-11-27 11:41:06.529964
3,15,Molí del Sol,MOLÍ DEL SOL,Suburbana,4,0,20,0,11,3,Tráfico,2025-11-27 11:00:00,Buena,A03_MOLISOL_60m,39.4811121109041,-0.408809896900938,2025-11-27 11:41:06.529964
4,16,Pista de Silla,PISTA DE SILLA,Urbana,2,16,36,0,15,4,Tráfico,2025-11-27 11:00:00,Buena,A04_PISTASILLA_60m,39.4580609536967,-0.376643936579157,2025-11-27 11:41:06.529964
5,17,Universidad Politécnica,POLITÈCNIC,Suburbana,2,11,37,,6,2,Fondo,2025-11-27 11:00:00,Buena,A05_POLITECNIC_60m,39.4796444969291,-0.337400660521869,2025-11-27 11:41:06.529964
6,12,Dr. Lluch,DR.LLUCH,Urbana,,38,,,22,3,Tráfico,2025-11-27 11:00:00,Razonablemente Buena,A08_DR_LLUCH_60m,39.4666847554611,-0.328289489402739,2025-11-27 11:41:06.529964
7,22,Patraix,PATRAIX,Urbana,,42,,,26,7,Tráfico,2025-11-27 11:00:00,Razonablemente Buena,A11_PATRAIX_60m,39.4591890899964,-0.401411329219129,2025-11-27 11:41:06.529964
8,20,Cabanyal,CABANYAL,Urbana,,23,,,12,3,Fondo,2025-11-27 11:00:00,Buena,A09_CABANYAL_60m,39.4743907853568,-0.328534813492744,2025-11-27 11:41:06.529964
9,14,Boulevar Sur,BULEVARD SUD,Urbana,4,4,34,,,,Tráfico,2025-11-27 11:00:00,Buena,A02_BULEVARDSUD_60m,39.4503960055054,-0.396337564375856,2025-11-27 11:41:06.529964
10,21,Olivereta,OLIVERETA,Urbana,,70,,,21,5,Tráfico,2025-11-27 11:00:00,Razonablemente Buena,A10_OLIVERETA_60m,39.4692442350919,-0.405923445529068,2025-11-27 11:41:06.529964
11,18,Viveros,VIVERS,Urbana,3,13,29,,,,Fondo,2025-11-27 11:00:00,Buena,A06_VIVERS_60m,39.4796409248053,-0.36964822314381,2025-11-27 11:41:06.529964
12,19,Centro,VALÈNCIA CENTRE,Urbana,,17,,,14,4,Tráfico,2025-11-27 12:00:00,Buena,A07_VALENCIACENTRE_60m,39.4705476702601,-0.376397651655324,2025-11-27 12:58:45.025222
13,12,Dr. Lluch,DR.LLUCH,Urbana,,33,,,22,3,Tráfico,2025-11-27 12:00:00,Razonablemente Buena,A08_DR_LLUCH_60m,39.4666847554611,-0.328289489402739,2025-11-27 12:58:45.025222
14,22,Patraix,PATRAIX,Urbana,,45,,,24,7,Tráfico,2025-11-27 12:00:00,Razonablemente Buena,A11_PATRAIX_60m,39.4591890899964,-0.401411329219129,2025-11-27 12:58:45.025222
15,17,Universidad Politécnica,POLITÈCNIC,Suburbana,2,12,37,,6,2,Fondo,2025-11-27 12:00:00,Buena,A05_POLITECNIC_60m,39.4796444969291,-0.337400660521869,2025-11-27 12:58:45.025222
16,21,Olivereta,OLIVERETA,Urbana,,70,,,21,5,Tráfico,2025-11-27 11:00:00,Razonablemente Buena,A10_OLIVERETA_60m,39.4692442350919,-0.405923445529068,2025-11-27 12:58:45.025222
17,13,Francia,AVDA.FRANCIA,Urbana,1,13,28,0,15,4,Tráfico,2025-11-27 12:00:00,Buena,A01_AVFRANCIA_60m,39.4578268875183,-0.342986232422652,2025-11-27 12:58:45.025222
18,14,Boulevar Sur,BULEVARD SUD,Urbana,4,1,37,,,,Tráfico,2025-11-27 12:00:00,Buena,A02_BULEVARDSUD_60m,39.4503960055054,-0.396337564375856,2025-11-27 12:58:45.025222
19,15,Molí del Sol,MOLÍ DEL SOL,Suburbana,3,0,25,0,11,3,Tráfico,2025-11-27 12:00:00,Buena,A03_MOLISOL_60m,39.4811121109041,-0.408809896900938,2025-11-27 12:58:45.025222
20,16,Pista de Silla,PISTA DE SILLA,Urbana,2,13,36,0,17,5,Tráfico,2025-11-27 12:00:00,Buena,A04_PISTASILLA_60m,39.4580609536967,-0.376643936579157,2025-11-27 12:58:45.025222
21,20,Cabanyal,CABANYAL,Urbana,,17,,,11,3,Fondo,2025-11-27 12:00:00,Buena,A09_CABANYAL_60m,39.4743907853568,-0.328534813492744,2025-11-27 12:58:45.025222
22,18,Viveros,VIVERS,Urbana,0,10,31,,,,Fondo,2025-11-27 12:00:00,Buena,A06_VIVERS_60m,39.4796409248053,-0.36964822314381,2025-11-27 12:58:45.025222
23,21,Olivereta,OLIVERETA,Urbana,,70,,,18,5,Tráfico,2025-11-27 14:00:00,Buena,A10_OLIVERETA_60m,39.4692442350919,-0.405923445529068,2025-11-27 15:18:03.797437
24,20,Cabanyal,CABANYAL,Urbana,,21,,,11,3,Fondo,2025-11-27 14:00:00,Buena,A09_CABANYAL_60m,39.4743907853568,-0.328534813492744,2025-11-27 15:18:03.797437
25,13,Francia,AVDA.FRANCIA,Urbana,1,8,32,0,16,4,Tráfico,2025-11-27 13:00:00,Buena,A01_AVFRANCIA_60m,39.4578268875183,-0.342986232422652,2025-11-27 15:18:03.797437
26,14,Boulevar Sur,BULEVARD SUD,Urbana,2,1,51,,,,Tráfico,2025-11-27 14:00:00,Razonablemente Buena,A02_BULEVARDSUD_60m,39.4503960055054,-0.396337564375856,2025-11-27 15:18:03.797437
27,22,Patraix,PATRAIX,Urbana,,42,,,23,7,Tráfico,2025-11-27 14:00:00,Razonablemente Buena,A11_PATRAIX_60m,39.4591890899964,-0.401411329219129,2025-11-27 15:18:03.797437
28,16,Pista de Silla,PISTA DE SILLA,Urbana,2,16,44,0,16,5,Tráfico,2025-11-27 14:00:00,Buena,A04_PISTASILLA_60m,39.4580609536967,-0.376643936579157,2025-11-27 15:18:03.797437
29,17,Universidad Politécnica,POLITÈCNIC,Suburbana,1,10,40,,7,2,Fondo,2025-11-27 14:00:00,Buena,A05_POLITECNIC_60m,39.4796444969291,-0.337400660521869,2025-11-27 15:18:03.797437
30,18,Viveros,VIVERS,Urbana,0,5,38,,,,Fondo,2025-11-27 14:00:00,Buena,A06_VIVERS_60m,39.4796409248053,-0.36964822314381,2025-11-27 15:18:03.797437
31,19,Centro,VALÈNCIA CENTRE,Urbana,,13,,,14,4,Tráfico,2025-11-27 14:00:00,Buena,A07_VALENCIACENTRE_60m,39.4705476702601,-0.376397651655324,2025-11-27 15:18:03.797437
32,12,Dr. Lluch,DR.LLUCH,Urbana,,34,,,22,3,Tráfico,2025-11-27 14:00:00,Razonablemente Buena,A08_DR_LLUCH_60m,39.4666847554611,-0.328289489402739,2025-11-27 15:18:03.797437
33,15,Molí del Sol,MOLÍ DEL SOL,Suburbana,1,0,40,0,11,4,Tráfico,2025-11-27 14:00:00,Buena,A03_MOLISOL_60m,39.4811121109041,-0.408809896900938,2025-11-27 15:18:03.797437
34,19,Centro,VALÈNCIA CENTRE,Urbana,,18,,,14,4,Tráfico,2025-11-27 15:00:00,Buena,A07_VALENCIACENTRE_60m,39.4705476702601,-0.376397651655324,2025-11-27 15:26:30.463613
35,12,Dr. Lluch,DR.LLUCH,Urbana,,35,,,22,3,Tráfico,2025-11-27 15:00:00,Razonablemente Buena,A08_DR_LLUCH_60m,39.4666847554611,-0.328289489402739,2025-11-27 15:26:30.463613
36,21,Olivereta,OLIVERETA,Urbana,,70,,,18,5,Tráfico,2025-11-27 15:00:00,Buena,A10_OLIVERETA_60m,39.4692442350919,-0.405923445529068,2025-11-27 15:26:30.463613
37,14,Boulevar Sur,BULEVARD SUD,Urbana,1,1,61,,,,Tráfico,2025-11-27 15:00:00,Razonablemente Buena,A02_BULEVARDSUD_60m,39.4503960055054,-0.396337564375856,2025-11-27 15:26:30.463613
38,17,Universidad Politécnica,POLITÈCNIC,Suburbana,1,11,47,,7,3,Fondo,2025-11-27 15:00:00,Buena,A05_POLITECNIC_60m,39.4796444969291,-0.337400660521869,2025-11-27 15:26:30.463613
39,13,Francia,AVDA.FRANCIA,Urbana,1,8,32,0,16,4,Tráfico,2025-11-27 13:00:00,Buena,A01_AVFRANCIA_60m,39.4578268875183,-0.342986232422652,2025-11-27 15:26:30.463613
40,22,Patraix,PATRAIX,Urbana,,41,,,22,7,Tráfico,2025-11-27 15:00:00,Razonablemente Buena,A11_PATRAIX_60m,39.4591890899964,-0.401411329219129,2025-11-27 15:26:30.463613
41,15,Molí del Sol,MOLÍ DEL SOL,Suburbana,1,0,49,0,11,4,Tráfico,2025-11-27 15:00:00,Buena,A03_MOLISOL_60m,39.4811121109041,-0.408809896900938,2025-11-27 15:26:30.463613
42,16,Pista de Silla,PISTA DE SILLA,Urbana,2,17,51,0,16,5,Tráfico,2025-11-27 15:00:00,Razonablemente Buena,A04_PISTASILLA_60m,39.4580609536967,-0.376643936579157,2025-11-27 15:26:30.463613
43,20,Cabanyal,CABANYAL,Urbana,,18,,,11,3,Fondo,2025-11-27 15:00:00,Buena,A09_CABANYAL_60m,39.4743907853568,-0.328534813492744,2025-11-27 15:26:30.463613
44,18,Viveros,VIVERS,Urbana,0,7,44,,,,Fondo,2025-11-27 15:00:00,Buena,A06_VIVERS_60m,39.4796409248053,-0.36964822314381,2025-11-27 15:26:30.463613
45,19,Centro,VALÈNCIA CENTRE,Urbana,,18,,,14,4,Tráfico,2025-11-27 15:00:00,Buena,A07_VALENCIACENTRE_60m,39.4705476702601,-0.376397651655324,2025-11-27 15:28:53.480054
46,12,Dr. Lluch,DR.LLUCH,Urbana,,35,,,22,3,Tráfico,2025-11-27 15:00:00,Razonablemente Buena,A08_DR_LLUCH_60m,39.4666847554611,-0.328289489402739,2025-11-27 15:28:53.480054
47,21,Olivereta,OLIVERETA,Urbana,,70,,,18,5,Tráfico,2025-11-27 15:00:00,Buena,A10_OLIVERETA_60m,39.4692442350919,-0.405923445529068,2025-11-27 15:28:53.480054
48,14,Boulevar Sur,BULEVARD SUD,Urbana,1,1,61,,,,Tráfico,2025-11-27 15:00:00,Razonablemente Buena,A02_BULEVARDSUD_60m,39.4503960055054,-0.396337564375856,2025-11-27 15:28:53.480054
49,17,Universidad Politécnica,POLITÈCNIC,Suburbana,1,11,47,,7,3,Fondo,2025-11-27 15:00:00,Buena,A05_POLITECNIC_60m,39.4796444969291,-0.337400660521869,2025-11-27 15:28:53.480054
50,13,Francia,AVDA.FRANCIA,Urbana,1,8,32,0,16,4,Tráfico,2025-11-27 13:00:00,Buena,A01_AVFRANCIA_60m,39.4578268875183,-0.342986232422652,2025-11-27 15:28:53.480054
51,22,Patraix,PATRAIX,Urbana,,41,,,22,7,Tráfico,2025-11-27 15:00:00,Razonablemente Buena,A11_PATRAIX_60m,39.4591890899964,-0.401411329219129,2025-11-27 15:28:53.480054
52,15,Molí del Sol,MOLÍ DEL SOL,Suburbana,1,0,49,0,11,4,Tráfico,2025-11-27 15:00:00,Buena,A03_MOLISOL_60m,39.4811121109041,-0.408809896900938,2025-11-27 15:28:53.480054
53,16,Pista de Silla,PISTA DE SILLA,Urbana,2,17,51,0,16,5,Tráfico,2025-11-27 15:00:00,Razonablemente Buena,A04_PISTASILLA_60m,39.4580609536967,-0.376643936579157,2025-11-27 15:28:53.480054
54,20,Cabanyal,CABANYAL,Urbana,,18,,,11,3,Fondo,2025-11-27 15:00:00,Buena,A09_CABANYAL_60m,39.4743907853568,-0.328534813492744,2025-11-27 15:28:53.480054
55,18,Viveros,VIVERS,Urbana,0,7,44,,,,Fondo,2025-11-27 15:00:00,Buena,A06_VIVERS_60m,39.4796409248053,-0.36964822314381,2025-11-27 15:28:53.480054
56,19,Centro,VALÈNCIA CENTRE,Urbana,,18,,,14,4,Tráfico,2025-11-27 15:00:00,Buena,A07_VALENCIACENTRE_60m,39.4705476702601,-0.376397651655324,2025-11-27 15:43:53.819070
57,12,Dr. Lluch,DR.LLUCH,Urbana,,35,,,22,3,Tráfico,2025-11-27 15:00:00,Razonablemente Buena,A08_DR_LLUCH_60m,39.4666847554611,-0.328289489402739,2025-11-27 15:43:53.819070
58,21,Olivereta,OLIVERETA,Urbana,,70,,,18,5,Tráfico,2025-11-27 15:00:00,Buena,A10_OLIVERETA_60m,39.4692442350919,-0.405923445529068,2025-11-27 15:43:53.819070
59,14,Boulevar Sur,BULEVARD SUD,Urbana,1,1,61,,,,Tráfico,2025-11-27 15:00:00,Razonablemente Buena,A02_BULEVARDSUD_60m,39.4503960055054,-0.396337564375856,2025-11-27 15:43:53.819070
60,17,Universidad Politécnica,POLITÈCNIC,Suburbana,1,11,47,,7,3,Fondo,2025-11-27 15:00:00,Buena,A05_POLITECNIC_60m,39.4796444969291,-0.337400660521869,2025-11-27 15:43:53.819070
61,13,Francia,AVDA.FRANCIA,Urbana,1,8,32,0,16,4,Tráfico,2025-11-27 13:00:00,Buena,A01_AVFRANCIA_60m,39.4578268875183,-0.342986232422652,2025-11-27 15:43:53.819070
62,22,Patraix,PATRAIX,Urbana,,41,,,22,7,Tráfico,2025-11-27 15:00:00,Razonablemente Buena,A11_PATRAIX_60m,39.4591890899964,-0.401411329219129,2025-11-27 15:43:53.819070
63,15,Molí del Sol,MOLÍ DEL SOL,Suburbana,1,0,49,0,11,4,Tráfico,2025-11-27 15:00:00,Buena,A03_MOLISOL_60m,39.4811121109041,-0.408809896900938,2025-11-27 15:43:53.819070
64,16,Pista de Silla,PISTA DE SILLA,Urbana,2,17,51,0,16,5,Tráfico,2025-11-27 15:00:00,Razonablemente Buena,A04_PISTASILLA_60m,39.4580609536967,-0.376643936579157,2025-11-27 15:43:53.819070
65,20,Cabanyal,CABANYAL,Urbana,,18,,,11,3,Fondo,2025-11-27 15:00:00,Buena,A09_CABANYAL_60m,39.4743907853568,-0.328534813492744,2025-11-27 15:43:53.819070
66,18,Viveros,VIVERS,Urbana,0,7,44,,,,Fondo,2025-11-27 15:00:00,Buena,A06_VIVERS_60m,39.4796409248053,-0.36964822314381,2025-11-27 15:43:53.819070
67,19,Centro,VALÈNCIA CENTRE,Urbana,,18,,,14,4,Tráfico,2025-11-27 15:00:00,Buena,A07_VALENCIACENTRE_60m,39.4705476702601,-0.376397651655324,2025-11-27 15:45:33.745550
68,12,Dr. Lluch,DR.LLUCH,Urbana,,35,,,22,3,Tráfico,2025-11-27 15:00:00,Razonablemente Buena,A08_DR_LLUCH_60m,39.4666847554611,-0.328289489402739,2025-11-27 15:45:33.745550
69,21,Olivereta,OLIVERETA,Urbana,,70,,,18,5,Tráfico,2025-11-27 15:00:00,Buena,A10_OLIVERETA_60m,39.4692442350919,-0.405923445529068,2025-11-27 15:45:33.745550
70,14,Boulevar Sur,BULEVARD SUD,Urbana,1,1,61,,,,Tráfico,2025-11-27 15:00:00,Razonablemente Buena,A02_BULEVARDSUD_60m,39.4503960055054,-0.396337564375856,2025-11-27 15:45:33.745550
71,17,Universidad Politécnica,POLITÈCNIC,Suburbana,1,11,47,,7,3,Fondo,2025-11-27 15:00:00,Buena,A05_POLITECNIC_60m,39.4796444969291,-0.337400660521869,2025-11-27 15:45:33.745550
72,13,Francia,AVDA.FRANCIA,Urbana,1,8,32,0,16,4,Tráfico,2025-11-27 13:00:00,Buena,A01_AVFRANCIA_60m,39.4578268875183,-0.342986232422652,2025-11-27 15:45:33.745550
73,22,Patraix,PATRAIX,Urbana,,41,,,22,7,Tráfico,2025-11-27 15:00:00,Razonablemente Buena,A11_PATRAIX_60m,39.4591890899964,-0.401411329219129,2025-11-27 15:45:33.745550
74,15,Molí del Sol,MOLÍ DEL SOL,Suburbana,1,0,49,0,11,4,Tráfico,2025-11-27 15:00:00,Buena,A03_MOLISOL_60m,39.4811121109041,-0.408809896900938,2025-11-27 15:45:33.745550
75,16,Pista de Silla,PISTA DE SILLA,Urbana,2,17,51,0,16,5,Tráfico,2025-11-27 15:00:00,Razonablemente Buena,A04_PISTASILLA_60m,39.4580609536967,-0.376643936579157,2025-11-27 15:45:33.745550
76,20,Cabanyal,CABANYAL,Urbana,,18,,,11,3,Fondo,2025-11-27 15:00:00,Buena,A09_CABANYAL_60m,39.4743907853568,-0.328534813492744,2025-11-27 15:45:33.745550
77,18,Viveros,VIVERS,Urbana,0,7,44,,,,Fondo,2025-11-27 15:00:00,Buena,A06_VIVERS_60m,39.4796409248053,-0.36964822314381,2025-11-27 15:45:33.745550
78,19,Centro,VALÈNCIA CENTRE,Urbana,,18,,,14,4,Tráfico,2025-11-27 15:00:00,Buena,A07_VALENCIACENTRE_60m,39.4705476702601,-0.376397651655324,2025-11-27 15:49:43.273386
79,12,Dr. Lluch,DR.LLUCH,Urbana,,35,,,22,3,Tráfico,2025-11-27 15:00:00,Razonablemente Buena,A08_DR_LLUCH_60m,39.4666847554611,-0.328289489402739,2025-11-27 15:49:43.273386
80,21,Olivereta,OLIVERETA,Urbana,,70,,,18,5,Tráfico,2025-11-27 15:00:00,Buena,A10_OLIVERETA_60m,39.4692442350919,-0.405923445529068,2025-11-27 15:49:43.273386
81,14,Boulevar Sur,BULEVARD SUD,Urbana,1,1,61,,,,Tráfico,2025-11-27 15:00:00,Razonablemente Buena,A02_BULEVARDSUD_60m,39.4503960055054,-0.396337564375856,2025-11-27 15:49:43.273386
82,17,Universidad Politécnica,POLITÈCNIC,Suburbana,1,11,47,,7,3,Fondo,2025-11-27 15:00:00,Buena,A05_POLITECNIC_60m,39.4796444969291,-0.337400660521869,2025-11-27 15:49:43.273386
83,13,Francia,AVDA.FRANCIA,Urbana,1,8,32,0,16,4,Tráfico,2025-11-27 13:00:00,Buena,A01_AVFRANCIA_60m,39.4578268875183,-0.342986232422652,2025-11-27 15:49:43.273386
84,22,Patraix,PATRAIX,Urbana,,41,,,22,7,Tráfico,2025-11-27 15:00:00,Razonablemente Buena,A11_PATRAIX_60m,39.4591890899964,-0.401411329219129,2025-11-27 15:49:43.273386
85,15,Molí del Sol,MOLÍ DEL SOL,Suburbana,1,0,49,0,11,4,Tráfico,2025-11-27 15:00:00,Buena,A03_MOLISOL_60m,39.4811121109041,-0.408809896900938,2025-11-27 15:49:43.273386
86,16,Pista de Silla,PISTA DE SILLA,Urbana,2,17,51,0,16,5,Tráfico,2025-11-27 15:00:00,Razonablemente Buena,A04_PISTASILLA_60m,39.4580609536967,-0.376643936579157,2025-11-27 15:49:43.273386
87,20,Cabanyal,CABANYAL,Urbana,,18,,,11,3,Fondo,2025-11-27 15:00:00,Buena,A09_CABANYAL_60m,39.4743907853568,-0.328534813492744,2025-11-27 15:49:43.273386
88,18,Viveros,VIVERS,Urbana,0,7,44,,,,Fondo,2025-11-27 15:00:00,Buena,A06_VIVERS_60m,39.4796409248053,-0.36964822314381,2025-11-27 15:49:43.273386
89,19,Centro,VALÈNCIA CENTRE,Urbana,,18,,,14,4,Tráfico,2025-11-27 15:00:00,Buena,A07_VALENCIACENTRE_60m,39.4705476702601,-0.376397651655324,2025-11-27 15:50:16.985514
90,12,Dr. Lluch,DR.LLUCH,Urbana,,35,,,22,3,Tráfico,2025-11-27 15:00:00,Razonablemente Buena,A08_DR_LLUCH_60m,39.4666847554611,-0.328289489402739,2025-11-27 15:50:16.985514
91,21,Olivereta,OLIVERETA,Urbana,,70,,,18,5,Tráfico,2025-11-27 15:00:00,Buena,A10_OLIVERETA_60m,39.4692442350919,-0.405923445529068,2025-11-27 15:50:16.985514
92,14,Boulevar Sur,BULEVARD SUD,Urbana,1,1,61,,,,Tráfico,2025-11-27 15:00:00,Razonablemente Buena,A02_BULEVARDSUD_60m,39.4503960055054,-0.396337564375856,2025-11-27 15:50:16.985514
93,17,Universidad Politécnica,POLITÈCNIC,Suburbana,1,11,47,,7,3,Fondo,2025-11-27 15:00:00,Buena,A05_POLITECNIC_60m,39.4796444969291,-0.337400660521869,2025-11-27 15:50:16.985514
94,13,Francia,AVDA.FRANCIA,Urbana,1,8,32,0,16,4,Tráfico,2025-11-27 13:00:00,Buena,A01_AVFRANCIA_60m,39.4578268875183,-0.342986232422652,2025-11-27 15:50:16.985514
95,22,Patraix,PATRAIX,Urbana,,41,,,22,7,Tráfico,2025-11-27 15:00:00,Razonablemente Buena,A11_PATRAIX_60m,39.4591890899964,-0.401411329219129,2025-11-27 15:50:16.985514
96,15,Molí del Sol,MOLÍ DEL SOL,Suburbana,1,0,49,0,11,4,Tráfico,2025-11-27 15:00:00,Buena,A03_MOLISOL_60m,39.4811121109041,-0.408809896900938,2025-11-27 15:50:16.985514
97,16,Pista de Silla,PISTA DE SILLA,Urbana,2,17,51,0,16,5,Tráfico,2025-11-27 15:00:00,Razonablemente Buena,A04_PISTASILLA_60m,39.4580609536967,-0.376643936579157,2025-11-27 15:50:16.985514
98,20,Cabanyal,CABANYAL,Urbana,,18,,,11,3,Fondo,2025-11-27 15:00:00,Buena,A09_CABANYAL_60m,39.4743907853568,-0.328534813492744,2025-11-27 15:50:16.985514
99,18,Viveros,VIVERS,Urbana,0,7,44,,,,Fondo,2025-11-27 15:00:00,Buena,A06_VIVERS_60m,39.4796409248053,-0.36964822314381,2025-11-27 15:50:16.985514
100,19,Centro,VALÈNCIA CENTRE,Urbana,,18,,,14,4,Tráfico,2025-11-27 15:00:00,Buena,A07_VALENCIACENTRE_60m,39.4705476702601,-0.376397651655324,2025-11-27 15:55:05.330929
101,12,Dr. Lluch,DR.LLUCH,Urbana,,35,,,22,3,Tráfico,2025-11-27 15:00:00,Razonablemente Buena,A08_DR_LLUCH_60m,39.4666847554611,-0.328289489402739,2025-11-27 15:55:05.330929
102,21,Olivereta,OLIVERETA,Urbana,,70,,,18,5,Tráfico,2025-11-27 15:00:00,Buena,A10_OLIVERETA_60m,39.4692442350919,-0.405923445529068,2025-11-27 15:55:05.330929
103,14,Boulevar Sur,BULEVARD SUD,Urbana,1,1,61,,,,Tráfico,2025-11-27 15:00:00,Razonablemente Buena,A02_BULEVARDSUD_60m,39.4503960055054,-0.396337564375856,2025-11-27 15:55:05.330929
104,17,Universidad Politécnica,POLITÈCNIC,Suburbana,1,11,47,,7,3,Fondo,2025-11-27 15:00:00,Buena,A05_POLITECNIC_60m,39.4796444969291,-0.337400660521869,2025-11-27 15:55:05.330929
105,13,Francia,AVDA.FRANCIA,Urbana,1,8,32,0,16,4,Tráfico,2025-11-27 13:00:00,Buena,A01_AVFRANCIA_60m,39.4578268875183,-0.342986232422652,2025-11-27 15:55:05.330929
106,22,Patraix,PATRAIX,Urbana,,41,,,22,7,Tráfico,2025-11-27 15:00:00,Razonablemente Buena,A11_PATRAIX_60m,39.4591890899964,-0.401411329219129,2025-11-27 15:55:05.330929
107,15,Molí del Sol,MOLÍ DEL SOL,Suburbana,1,0,49,0,11,4,Tráfico,2025-11-27 15:00:00,Buena,A03_MOLISOL_60m,39.4811121109041,-0.408809896900938,2025-11-27 15:55:05.330929
108,16,Pista de Silla,PISTA DE SILLA,Urbana,2,17,51,0,16,5,Tráfico,2025-11-27 15:00:00,Razonablemente Buena,A04_PISTASILLA_60m,39.4580609536967,-0.376643936579157,2025-11-27 15:55:05.330929
109,20,Cabanyal,CABANYAL,Urbana,,18,,,11,3,Fondo,2025-11-27 15:00:00,Buena,A09_CABANYAL_60m,39.4743907853568,-0.328534813492744,2025-11-27 15:55:05.330929
110,18,Viveros,VIVERS,Urbana,0,7,44,,,,Fondo,2025-11-27 15:00:00,Buena,A06_VIVERS_60m,39.4796409248053,-0.36964822314381,2025-11-27 15:55:05.330929
111,19,Centro,VALÈNCIA CENTRE,Urbana,,18,,,14,4,Tráfico,2025-11-27 15:00:00,Buena,A07_VALENCIACENTRE_60m,39.4705476702601,-0.376397651655324,2025-11-27 16:02:04.050036
112,12,Dr. Lluch,DR.LLUCH,Urbana,,35,,,22,3,Tráfico,2025-11-27 15:00:00,Razonablemente Buena,A08_DR_LLUCH_60m,39.4666847554611,-0.328289489402739,2025-11-27 16:02:04.050036
113,21,Olivereta,OLIVERETA,Urbana,,70,,,18,5,Tráfico,2025-11-27 15:00:00,Buena,A10_OLIVERETA_60m,39.4692442350919,-0.405923445529068,2025-11-27 16:02:04.050036
114,14,Boulevar Sur,BULEVARD SUD,Urbana,1,1,61,,,,Tráfico,2025-11-27 15:00:00,Razonablemente Buena,A02_BULEVARDSUD_60m,39.4503960055054,-0.396337564375856,2025-11-27 16:02:04.050036
115,17,Universidad Politécnica,POLITÈCNIC,Suburbana,1,11,47,,7,3,Fondo,2025-11-27 15:00:00,Buena,A05_POLITECNIC_60m,39.4796444969291,-0.337400660521869,2025-11-27 16:02:04.050036
116,13,Francia,AVDA.FRANCIA,Urbana,1,8,32,0,16,4,Tráfico,2025-11-27 13:00:00,Buena,A01_AVFRANCIA_60m,39.4578268875183,-0.342986232422652,2025-11-27 16:02:04.050036
117,22,Patraix,PATRAIX,Urbana,,41,,,22,7,Tráfico,2025-11-27 15:00:00,Razonablemente Buena,A11_PATRAIX_60m,39.4591890899964,-0.401411329219129,2025-11-27 16:02:04.050036
118,15,Molí del Sol,MOLÍ DEL SOL,Suburbana,1,0,49,0,11,4,Tráfico,2025-11-27 15:00:00,Buena,A03_MOLISOL_60m,39.4811121109041,-0.408809896900938,2025-11-27 16:02:04.050036
119,16,Pista de Silla,PISTA DE SILLA,Urbana,2,17,51,0,16,5,Tráfico,2025-11-27 15:00:00,Razonablemente Buena,A04_PISTASILLA_60m,39.4580609536967,-0.376643936579157,2025-11-27 16:02:04.050036
120,20,Cabanyal,CABANYAL,Urbana,,18,,,11,3,Fondo,2025-11-27 15:00:00,Buena,A09_CABANYAL_60m,39.4743907853568,-0.328534813492744,2025-11-27 16:02:04.050036
121,18,Viveros,VIVERS,Urbana,0,7,44,,,,Fondo,2025-11-27 15:00:00,Buena,A06_VIVERS_60m,39.4796409248053,-0.36964822314381,2025-11-27 16:02:04.050036
122,19,Centro,VALÈNCIA CENTRE,Urbana,,18,,,14,4,Tráfico,2025-11-27 15:00:00,Buena,A07_VALENCIACENTRE_60m,39.4705476702601,-0.376397651655324,2025-11-27 16:12:26.013827
123,12,Dr. Lluch,DR.LLUCH,Urbana,,35,,,22,3,Tráfico,2025-11-27 15:00:00,Razonablemente Buena,A08_DR_LLUCH_60m,39.4666847554611,-0.328289489402739,2025-11-27 16:12:26.013827
124,21,Olivereta,OLIVERETA,Urbana,,70,,,18,5,Tráfico,2025-11-27 15:00:00,Buena,A10_OLIVERETA_60m,39.4692442350919,-0.405923445529068,2025-11-27 16:12:26.013827
125,14,Boulevar Sur,BULEVARD SUD,Urbana,1,1,61,,,,Tráfico,2025-11-27 15:00:00,Razonablemente Buena,A02_BULEVARDSUD_60m,39.4503960055054,-0.396337564375856,2025-11-27 16:12:26.013827
126,17,Universidad Politécnica,POLITÈCNIC,Suburbana,1,11,47,,7,3,Fondo,2025-11-27 15:00:00,Buena,A05_POLITECNIC_60m,39.4796444969291,-0.337400660521869,2025-11-27 16:12:26.013827
127,13,Francia,AVDA.FRANCIA,Urbana,1,8,32,0,16,4,Tráfico,2025-11-27 13:00:00,Buena,A01_AVFRANCIA_60m,39.4578268875183,-0.342986232422652,2025-11-27 16:12:26.013827
128,22,Patraix,PATRAIX,Urbana,,41,,,22,7,Tráfico,2025-11-27 15:00:00,Razonablemente Buena,A11_PATRAIX_60m,39.4591890899964,-0.401411329219129,2025-11-27 16:12:26.013827
129,15,Molí del Sol,MOLÍ DEL SOL,Suburbana,1,0,49,0,11,4,Tráfico,2025-11-27 15:00:00,Buena,A03_MOLISOL_60m,39.4811121109041,-0.408809896900938,2025-11-27 16:12:26.013827
130,16,Pista de Silla,PISTA DE SILLA,Urbana,2,17,51,0,16,5,Tráfico,2025-11-27 15:00:00,Razonablemente Buena,A04_PISTASILLA_60m,39.4580609536967,-0.376643936579157,2025-11-27 16:12:26.013827
131,20,Cabanyal,CABANYAL,Urbana,,18,,,11,3,Fondo,2025-11-27 15:00:00,Buena,A09_CABANYAL_60m,39.4743907853568,-0.328534813492744,2025-11-27 16:12:26.013827
132,18,Viveros,VIVERS,Urbana,0,7,44,,,,Fondo,2025-11-27 15:00:00,Buena,A06_VIVERS_60m,39.4796409248053,-0.36964822314381,2025-11-27 16:12:26.013827
133,19,Centro,VALÈNCIA CENTRE,Urbana,,18,,,14,4,Tráfico,2025-11-27 15:00:00,Buena,A07_VALENCIACENTRE_60m,39.4705476702601,-0.376397651655324,2025-11-27 16:13:32.417944
134,12,Dr. Lluch,DR.LLUCH,Urbana,,35,,,22,3,Tráfico,2025-11-27 15:00:00,Razonablemente Buena,A08_DR_LLUCH_60m,39.4666847554611,-0.328289489402739,2025-11-27 16:13:32.417944
135,21,Olivereta,OLIVERETA,Urbana,,70,,,18,5,Tráfico,2025-11-27 15:00:00,Buena,A10_OLIVERETA_60m,39.4692442350919,-0.405923445529068,2025-11-27 16:13:32.417944
136,14,Boulevar Sur,BULEVARD SUD,Urbana,1,1,61,,,,Tráfico,2025-11-27 15:00:00,Razonablemente Buena,A02_BULEVARDSUD_60m,39.4503960055054,-0.396337564375856,2025-11-27 16:13:32.417944
137,17,Universidad Politécnica,POLITÈCNIC,Suburbana,1,11,47,,7,3,Fondo,2025-11-27 15:00:00,Buena,A05_POLITECNIC_60m,39.4796444969291,-0.337400660521869,2025-11-27 16:13:32.417944
138,13,Francia,AVDA.FRANCIA,Urbana,1,8,32,0,16,4,Tráfico,2025-11-27 13:00:00,Buena,A01_AVFRANCIA_60m,39.4578268875183,-0.342986232422652,2025-11-27 16:13:32.417944
139,22,Patraix,PATRAIX,Urbana,,41,,,22,7,Tráfico,2025-11-27 15:00:00,Razonablemente Buena,A11_PATRAIX_60m,39.4591890899964,-0.401411329219129,2025-11-27 16:13:32.417944
140,15,Molí del Sol,MOLÍ DEL SOL,Suburbana,1,0,49,0,11,4,Tráfico,2025-11-27 15:00:00,Buena,A03_MOLISOL_60m,39.4811121109041,-0.408809896900938,2025-11-27 16:13:32.417944
141,16,Pista de Silla,PISTA DE SILLA,Urbana,2,17,51,0,16,5,Tráfico,2025-11-27 15:00:00,Razonablemente Buena,A04_PISTASILLA_60m,39.4580609536967,-0.376643936579157,2025-11-27 16:13:32.417944
142,20,Cabanyal,CABANYAL,Urbana,,18,,,11,3,Fondo,2025-11-27 15:00:00,Buena,A09_CABANYAL_60m,39.4743907853568,-0.328534813492744,2025-11-27 16:13:32.417944
143,18,Viveros,VIVERS,Urbana,0,7,44,,,,Fondo,2025-11-27 15:00:00,Buena,A06_VIVERS_60m,39.4796409248053,-0.36964822314381,2025-11-27 16:13:32.417944
144,15,Molí del Sol,MOLÍ DEL SOL,Suburbana,1,0,57,0,11,4,Tráfico,2025-11-27 16:00:00,Razonablemente Buena,A03_MOLISOL_60m,39.4811121109041,-0.408809896900938,2025-11-27 16:23:31.255425
145,17,Universidad Politécnica,POLITÈCNIC,Suburbana,1,15,54,,7,3,Fondo,2025-11-27 16:00:00,Razonablemente Buena,A05_POLITECNIC_60m,39.4796444969291,-0.337400660521869,2025-11-27 16:23:31.255425
146,20,Cabanyal,CABANYAL,Urbana,,26,,,11,3,Fondo,2025-11-27 16:00:00,Buena,A09_CABANYAL_60m,39.4743907853568,-0.328534813492744,2025-11-27 16:23:31.255425
147,18,Viveros,VIVERS,Urbana,0,15,49,,,,Fondo,2025-11-27 16:00:00,Buena,A06_VIVERS_60m,39.4796409248053,-0.36964822314381,2025-11-27 16:23:31.255425
148,13,Francia,AVDA.FRANCIA,Urbana,1,8,32,0,16,4,Tráfico,2025-11-27 13:00:00,Buena,A01_AVFRANCIA_60m,39.4578268875183,-0.342986232422652,2025-11-27 16:23:31.255425
149,19,Centro,VALÈNCIA CENTRE,Urbana,,25,,,14,4,Tráfico,2025-11-27 16:00:00,Buena,A07_VALENCIACENTRE_60m,39.4705476702601,-0.376397651655324,2025-11-27 16:23:31.255425
150,12,Dr. Lluch,DR.LLUCH,Urbana,,51,,,22,3,Tráfico,2025-11-27 16:00:00,Razonablemente Buena,A08_DR_LLUCH_60m,39.4666847554611,-0.328289489402739,2025-11-27 16:23:31.255425
151,16,Pista de Silla,PISTA DE SILLA,Urbana,2,40,55,0,16,5,Tráfico,2025-11-27 16:00:00,Razonablemente Buena,A04_PISTASILLA_60m,39.4580609536967,-0.376643936579157,2025-11-27 16:23:31.255425
152,14,Boulevar Sur,BULEVARD SUD,Urbana,2,1,68,,,,Tráfico,2025-11-27 16:00:00,Razonablemente Buena,A02_BULEVARDSUD_60m,39.4503960055054,-0.396337564375856,2025-11-27 16:23:31.255425
153,21,Olivereta,OLIVERETA,Urbana,,70,,,18,5,Tráfico,2025-11-27 16:00:00,Buena,A10_OLIVERETA_60m,39.4692442350919,-0.405923445529068,2025-11-27 16:23:31.255425
154,22,Patraix,PATRAIX,Urbana,,45,,,22,7,Tráfico,2025-11-27 16:00:00,Razonablemente Buena,A11_PATRAIX_60m,39.4591890899964,-0.401411329219129,2025-11-27 16:23:31.255425
155,15,Molí del Sol,MOLÍ DEL SOL,Suburbana,1,0,57,0,11,4,Tráfico,2025-11-27 16:00:00,Razonablemente Buena,A03_MOLISOL_60m,39.4811121109041,-0.408809896900938,2025-11-27 16:38:31.572555
156,17,Universidad Politécnica,POLITÈCNIC,Suburbana,1,15,54,,7,3,Fondo,2025-11-27 16:00:00,Razonablemente Buena,A05_POLITECNIC_60m,39.4796444969291,-0.337400660521869,2025-11-27 16:38:31.572555
157,20,Cabanyal,CABANYAL,Urbana,,26,,,11,3,Fondo,2025-11-27 16:00:00,Buena,A09_CABANYAL_60m,39.4743907853568,-0.328534813492744,2025-11-27 16:38:31.572555
158,18,Viveros,VIVERS,Urbana,0,15,49,,,,Fondo,2025-11-27 16:00:00,Buena,A06_VIVERS_60m,39.4796409248053,-0.36964822314381,2025-11-27 16:38:31.572555
159,13,Francia,AVDA.FRANCIA,Urbana,1,8,32,0,16,4,Tráfico,2025-11-27 13:00:00,Buena,A01_AVFRANCIA_60m,39.4578268875183,-0.342986232422652,2025-11-27 16:38:31.572555
160,19,Centro,VALÈNCIA CENTRE,Urbana,,25,,,14,4,Tráfico,2025-11-27 16:00:00,Buena,A07_VALENCIACENTRE_60m,39.4705476702601,-0.376397651655324,2025-11-27 16:38:31.572555
161,12,Dr. Lluch,DR.LLUCH,Urbana,,51,,,22,3,Tráfico,2025-11-27 16:00:00,Razonablemente Buena,A08_DR_LLUCH_60m,39.4666847554611,-0.328289489402739,2025-11-27 16:38:31.572555
162,16,Pista de Silla,PISTA DE SILLA,Urbana,2,40,55,0,16,5,Tráfico,2025-11-27 16:00:00,Razonablemente Buena,A04_PISTASILLA_60m,39.4580609536967,-0.376643936579157,2025-11-27 16:38:31.572555
163,14,Boulevar Sur,BULEVARD SUD,Urbana,2,1,68,,,,Tráfico,2025-11-27 16:00:00,Razonablemente Buena,A02_BULEVARDSUD_60m,39.4503960055054,-0.396337564375856,2025-11-27 16:38:31.572555
164,21,Olivereta,OLIVERETA,Urbana,,70,,,18,5,Tráfico,2025-11-27 16:00:00,Buena,A10_OLIVERETA_60m,39.4692442350919,-0.405923445529068,2025-11-27 16:38:31.572555
165,22,Patraix,PATRAIX,Urbana,,45,,,22,7,Tráfico,2025-11-27 16:00:00,Razonablemente Buena,A11_PATRAIX_60m,39.4591890899964,-0.401411329219129,2025-11-27 16:38:31.572555
166,15,Molí del Sol,MOLÍ DEL SOL,Suburbana,1,0,57,0,11,4,Tráfico,2025-11-27 16:00:00,Razonablemente Buena,A03_MOLISOL_60m,39.4811121109041,-0.408809896900938,2025-11-27 16:53:31.763814
167,17,Universidad Politécnica,POLITÈCNIC,Suburbana,1,15,54,,7,3,Fondo,2025-11-27 16:00:00,Razonablemente Buena,A05_POLITECNIC_60m,39.4796444969291,-0.337400660521869,2025-11-27 16:53:31.763814
168,20,Cabanyal,CABANYAL,Urbana,,26,,,11,3,Fondo,2025-11-27 16:00:00,Buena,A09_CABANYAL_60m,39.4743907853568,-0.328534813492744,2025-11-27 16:53:31.763814
169,18,Viveros,VIVERS,Urbana,0,15,49,,,,Fondo,2025-11-27 16:00:00,Buena,A06_VIVERS_60m,39.4796409248053,-0.36964822314381,2025-11-27 16:53:31.763814
170,13,Francia,AVDA.FRANCIA,Urbana,1,8,32,0,16,4,Tráfico,2025-11-27 13:00:00,Buena,A01_AVFRANCIA_60m,39.4578268875183,-0.342986232422652,2025-11-27 16:53:31.763814
171,19,Centro,VALÈNCIA CENTRE,Urbana,,25,,,14,4,Tráfico,2025-11-27 16:00:00,Buena,A07_VALENCIACENTRE_60m,39.4705476702601,-0.376397651655324,2025-11-27 16:53:31.763814
172,12,Dr. Lluch,DR.LLUCH,Urbana,,51,,,22,3,Tráfico,2025-11-27 16:00:00,Razonablemente Buena,A08_DR_LLUCH_60m,39.4666847554611,-0.328289489402739,2025-11-27 16:53:31.763814
173,16,Pista de Silla,PISTA DE SILLA,Urbana,2,40,55,0,16,5,Tráfico,2025-11-27 16:00:00,Razonablemente Buena,A04_PISTASILLA_60m,39.4580609536967,-0.376643936579157,2025-11-27 16:53:31.763814
174,14,Boulevar Sur,BULEVARD SUD,Urbana,2,1,68,,,,Tráfico,2025-11-27 16:00:00,Razonablemente Buena,A02_BULEVARDSUD_60m,39.4503960055054,-0.396337564375856,2025-11-27 16:53:31.763814
175,21,Olivereta,OLIVERETA,Urbana,,70,,,18,5,Tráfico,2025-11-27 16:00:00,Buena,A10_OLIVERETA_60m,39.4692442350919,-0.405923445529068,2025-11-27 16:53:31.763814
176,22,Patraix,PATRAIX,Urbana,,45,,,22,7,Tráfico,2025-11-27 16:00:00,Razonablemente Buena,A11_PATRAIX_60m,39.4591890899964,-0.401411329219129,2025-11-27 16:53:31.763814
177,15,Molí del Sol,MOLÍ DEL SOL,Suburbana,1,0,57,0,11,4,Tráfico,2025-11-27 16:00:00,Razonablemente Buena,A03_MOLISOL_60m,39.4811121109041,-0.408809896900938,2025-11-27 17:08:32.341707
178,17,Universidad Politécnica,POLITÈCNIC,Suburbana,1,15,54,,7,3,Fondo,2025-11-27 16:00:00,Razonablemente Buena,A05_POLITECNIC_60m,39.4796444969291,-0.337400660521869,2025-11-27 17:08:32.341707
179,20,Cabanyal,CABANYAL,Urbana,,26,,,11,3,Fondo,2025-11-27 16:00:00,Buena,A09_CABANYAL_60m,39.4743907853568,-0.328534813492744,2025-11-27 17:08:32.341707
180,18,Viveros,VIVERS,Urbana,0,15,49,,,,Fondo,2025-11-27 16:00:00,Buena,A06_VIVERS_60m,39.4796409248053,-0.36964822314381,2025-11-27 17:08:32.341707
181,13,Francia,AVDA.FRANCIA,Urbana,1,8,32,0,16,4,Tráfico,2025-11-27 13:00:00,Buena,A01_AVFRANCIA_60m,39.4578268875183,-0.342986232422652,2025-11-27 17:08:32.341707
182,19,Centro,VALÈNCIA CENTRE,Urbana,,25,,,14,4,Tráfico,2025-11-27 16:00:00,Buena,A07_VALENCIACENTRE_60m,39.4705476702601,-0.376397651655324,2025-11-27 17:08:32.341707
183,12,Dr. Lluch,DR.LLUCH,Urbana,,51,,,22,3,Tráfico,2025-11-27 16:00:00,Razonablemente Buena,A08_DR_LLUCH_60m,39.4666847554611,-0.328289489402739,2025-11-27 17:08:32.341707
184,16,Pista de Silla,PISTA DE SILLA,Urbana,2,40,55,0,16,5,Tráfico,2025-11-27 16:00:00,Razonablemente Buena,A04_PISTASILLA_60m,39.4580609536967,-0.376643936579157,2025-11-27 17:08:32.341707
185,14,Boulevar Sur,BULEVARD SUD,Urbana,2,1,68,,,,Tráfico,2025-11-27 16:00:00,Razonablemente Buena,A02_BULEVARDSUD_60m,39.4503960055054,-0.396337564375856,2025-11-27 17:08:32.341707
186,21,Olivereta,OLIVERETA,Urbana,,70,,,18,5,Tráfico,2025-11-27 16:00:00,Buena,A10_OLIVERETA_60m,39.4692442350919,-0.405923445529068,2025-11-27 17:08:32.341707
187,22,Patraix,PATRAIX,Urbana,,45,,,22,7,Tráfico,2025-11-27 16:00:00,Razonablemente Buena,A11_PATRAIX_60m,39.4591890899964,-0.401411329219129,2025-11-27 17:08:32.341707
188,15,Molí del Sol,MOLÍ DEL SOL,Suburbana,1,0,57,0,11,4,Tráfico,2025-11-27 16:00:00,Razonablemente Buena,A03_MOLISOL_60m,39.4811121109041,-0.408809896900938,2025-11-27 17:20:13.454481
189,17,Universidad Politécnica,POLITÈCNIC,Suburbana,1,15,54,,7,3,Fondo,2025-11-27 16:00:00,Razonablemente Buena,A05_POLITECNIC_60m,39.4796444969291,-0.337400660521869,2025-11-27 17:20:13.454481
190,20,Cabanyal,CABANYAL,Urbana,,26,,,11,3,Fondo,2025-11-27 16:00:00,Buena,A09_CABANYAL_60m,39.4743907853568,-0.328534813492744,2025-11-27 17:20:13.454481
191,18,Viveros,VIVERS,Urbana,0,15,49,,,,Fondo,2025-11-27 16:00:00,Buena,A06_VIVERS_60m,39.4796409248053,-0.36964822314381,2025-11-27 17:20:13.454481
192,13,Francia,AVDA.FRANCIA,Urbana,1,8,32,0,16,4,Tráfico,2025-11-27 13:00:00,Buena,A01_AVFRANCIA_60m,39.4578268875183,-0.342986232422652,2025-11-27 17:20:13.454481
193,19,Centro,VALÈNCIA CENTRE,Urbana,,25,,,14,4,Tráfico,2025-11-27 16:00:00,Buena,A07_VALENCIACENTRE_60m,39.4705476702601,-0.376397651655324,2025-11-27 17:20:13.454481
194,12,Dr. Lluch,DR.LLUCH,Urbana,,51,,,22,3,Tráfico,2025-11-27 16:00:00,Razonablemente Buena,A08_DR_LLUCH_60m,39.4666847554611,-0.328289489402739,2025-11-27 17:20:13.454481
195,16,Pista de Silla,PISTA DE SILLA,Urbana,2,40,55,0,16,5,Tráfico,2025-11-27 16:00:00,Razonablemente Buena,A04_PISTASILLA_60m,39.4580609536967,-0.376643936579157,2025-11-27 17:20:13.454481
196,14,Boulevar Sur,BULEVARD SUD,Urbana,2,1,68,,,,Tráfico,2025-11-27 16:00:00,Razonablemente Buena,A02_BULEVARDSUD_60m,39.4503960055054,-0.396337564375856,2025-11-27 17:20:13.454481
197,21,Olivereta,OLIVERETA,Urbana,,70,,,18,5,Tráfico,2025-11-27 16:00:00,Buena,A10_OLIVERETA_60m,39.4692442350919,-0.405923445529068,2025-11-27 17:20:13.454481
198,22,Patraix,PATRAIX,Urbana,,45,,,22,7,Tráfico,2025-11-27 16:00:00,Razonablemente Buena,A11_PATRAIX_60m,39.4591890899964,-0.401411329219129,2025-11-27 17:20:13.454481
199,14,Boulevar Sur,BULEVARD SUD,Urbana,2,1,68,,,,Tráfico,2025-11-27 17:00:00,Razonablemente Buena,A02_BULEVARDSUD_60m,39.4503960055054,-0.396337564375856,2025-11-27 17:35:13.871067
200,12,Dr. Lluch,DR.LLUCH,Urbana,,76,,,22,3,Tráfico,2025-11-27 17:00:00,Razonablemente Buena,A08_DR_LLUCH_60m,39.4666847554611,-0.328289489402739,2025-11-27 17:35:13.871067
201,15,Molí del Sol,MOLÍ DEL SOL,Suburbana,3,0,57,0,12,4,Tráfico,2025-11-27 17:00:00,Razonablemente Buena,A03_MOLISOL_60m,39.4811121109041,-0.408809896900938,2025-11-27 17:35:13.871067
202,17,Universidad Politécnica,POLITÈCNIC,Suburbana,0,27,53,,7,3,Fondo,2025-11-27 17:00:00,Razonablemente Buena,A05_POLITECNIC_60m,39.4796444969291,-0.337400660521869,2025-11-27 17:35:13.871067
203,18,Viveros,VIVERS,Urbana,0,38,50,,,,Fondo,2025-11-27 17:00:00,Buena,A06_VIVERS_60m,39.4796409248053,-0.36964822314381,2025-11-27 17:35:13.871067
204,13,Francia,AVDA.FRANCIA,Urbana,1,8,32,0,16,4,Tráfico,2025-11-27 13:00:00,Buena,A01_AVFRANCIA_60m,39.4578268875183,-0.342986232422652,2025-11-27 17:35:13.871067
205,19,Centro,VALÈNCIA CENTRE,Urbana,,41,,,15,4,Tráfico,2025-11-27 17:00:00,Razonablemente Buena,A07_VALENCIACENTRE_60m,39.4705476702601,-0.376397651655324,2025-11-27 17:35:13.871067
206,16,Pista de Silla,PISTA DE SILLA,Urbana,3,57,55,0,17,5,Tráfico,2025-11-27 17:00:00,Razonablemente Buena,A04_PISTASILLA_60m,39.4580609536967,-0.376643936579157,2025-11-27 17:35:13.871067
207,21,Olivereta,OLIVERETA,Urbana,,70,,,19,6,Tráfico,2025-11-27 17:00:00,Buena,A10_OLIVERETA_60m,39.4692442350919,-0.405923445529068,2025-11-27 17:35:13.871067
208,22,Patraix,PATRAIX,Urbana,,82,,,23,7,Tráfico,2025-11-27 17:00:00,Razonablemente Buena,A11_PATRAIX_60m,39.4591890899964,-0.401411329219129,2025-11-27 17:35:13.871067
209,20,Cabanyal,CABANYAL,Urbana,,52,,,11,3,Fondo,2025-11-27 17:00:00,Razonablemente Buena,A09_CABANYAL_60m,39.4743907853568,-0.328534813492744,2025-11-27 17:35:13.871067
210,14,Boulevar Sur,BULEVARD SUD,Urbana,2,1,68,,,,Tráfico,2025-11-27 17:00:00,Razonablemente Buena,A02_BULEVARDSUD_60m,39.4503960055054,-0.396337564375856,2025-11-27 17:41:18.391165
211,12,Dr. Lluch,DR.LLUCH,Urbana,,76,,,22,3,Tráfico,2025-11-27 17:00:00,Razonablemente Buena,A08_DR_LLUCH_60m,39.4666847554611,-0.328289489402739,2025-11-27 17:41:18.391165
212,15,Molí del Sol,MOLÍ DEL SOL,Suburbana,3,0,57,0,12,4,Tráfico,2025-11-27 17:00:00,Razonablemente Buena,A03_MOLISOL_60m,39.4811121109041,-0.408809896900938,2025-11-27 17:41:18.391165
213,17,Universidad Politécnica,POLITÈCNIC,Suburbana,0,27,53,,7,3,Fondo,2025-11-27 17:00:00,Razonablemente Buena,A05_POLITECNIC_60m,39.4796444969291,-0.337400660521869,2025-11-27 17:41:18.391165
214,18,Viveros,VIVERS,Urbana,0,38,50,,,,Fondo,2025-11-27 17:00:00,Buena,A06_VIVERS_60m,39.4796409248053,-0.36964822314381,2025-11-27 17:41:18.391165
215,13,Francia,AVDA.FRANCIA,Urbana,1,8,32,0,16,4,Tráfico,2025-11-27 13:00:00,Buena,A01_AVFRANCIA_60m,39.4578268875183,-0.342986232422652,2025-11-27 17:41:18.391165
216,19,Centro,VALÈNCIA CENTRE,Urbana,,41,,,15,4,Tráfico,2025-11-27 17:00:00,Razonablemente Buena,A07_VALENCIACENTRE_60m,39.4705476702601,-0.376397651655324,2025-11-27 17:41:18.391165
217,16,Pista de Silla,PISTA DE SILLA,Urbana,3,57,55,0,17,5,Tráfico,2025-11-27 17:00:00,Razonablemente Buena,A04_PISTASILLA_60m,39.4580609536967,-0.376643936579157,2025-11-27 17:41:18.391165
218,21,Olivereta,OLIVERETA,Urbana,,70,,,19,6,Tráfico,2025-11-27 17:00:00,Buena,A10_OLIVERETA_60m,39.4692442350919,-0.405923445529068,2025-11-27 17:41:18.391165
219,22,Patraix,PATRAIX,Urbana,,82,,,23,7,Tráfico,2025-11-27 17:00:00,Razonablemente Buena,A11_PATRAIX_60m,39.4591890899964,-0.401411329219129,2025-11-27 17:41:18.391165
220,20,Cabanyal,CABANYAL,Urbana,,52,,,11,3,Fondo,2025-11-27 17:00:00,Razonablemente Buena,A09_CABANYAL_60m,39.4743907853568,-0.328534813492744,2025-11-27 17:41:18.391165
221,14,Boulevar Sur,BULEVARD SUD,Urbana,2,1,68,,,,Tráfico,2025-11-27 17:00:00,Razonablemente Buena,A02_BULEVARDSUD_60m,39.4503960055054,-0.396337564375856,2025-11-27 17:42:15.780575
222,12,Dr. Lluch,DR.LLUCH,Urbana,,76,,,22,3,Tráfico,2025-11-27 17:00:00,Razonablemente Buena,A08_DR_LLUCH_60m,39.4666847554611,-0.328289489402739,2025-11-27 17:42:15.780575
223,15,Molí del Sol,MOLÍ DEL SOL,Suburbana,3,0,57,0,12,4,Tráfico,2025-11-27 17:00:00,Razonablemente Buena,A03_MOLISOL_60m,39.4811121109041,-0.408809896900938,2025-11-27 17:42:15.780575
224,17,Universidad Politécnica,POLITÈCNIC,Suburbana,0,27,53,,7,3,Fondo,2025-11-27 17:00:00,Razonablemente Buena,A05_POLITECNIC_60m,39.4796444969291,-0.337400660521869,2025-11-27 17:42:15.780575
225,18,Viveros,VIVERS,Urbana,0,38,50,,,,Fondo,2025-11-27 17:00:00,Buena,A06_VIVERS_60m,39.4796409248053,-0.36964822314381,2025-11-27 17:42:15.780575
226,13,Francia,AVDA.FRANCIA,Urbana,1,8,32,0,16,4,Tráfico,2025-11-27 13:00:00,Buena,A01_AVFRANCIA_60m,39.4578268875183,-0.342986232422652,2025-11-27 17:42:15.780575
227,19,Centro,VALÈNCIA CENTRE,Urbana,,41,,,15,4,Tráfico,2025-11-27 17:00:00,Razonablemente Buena,A07_VALENCIACENTRE_60m,39.4705476702601,-0.376397651655324,2025-11-27 17:42:15.780575
228,16,Pista de Silla,PISTA DE SILLA,Urbana,3,57,55,0,17,5,Tráfico,2025-11-27 17:00:00,Razonablemente Buena,A04_PISTASILLA_60m,39.4580609536967,-0.376643936579157,2025-11-27 17:42:15.780575
229,21,Olivereta,OLIVERETA,Urbana,,70,,,19,6,Tráfico,2025-11-27 17:00:00,Buena,A10_OLIVERETA_60m,39.4692442350919,-0.405923445529068,2025-11-27 17:42:15.780575
230,22,Patraix,PATRAIX,Urbana,,82,,,23,7,Tráfico,2025-11-27 17:00:00,Razonablemente Buena,A11_PATRAIX_60m,39.4591890899964,-0.401411329219129,2025-11-27 17:42:15.780575
231,20,Cabanyal,CABANYAL,Urbana,,52,,,11,3,Fondo,2025-11-27 17:00:00,Razonablemente Buena,A09_CABANYAL_60m,39.4743907853568,-0.328534813492744,2025-11-27 17:42:15.780575
232,14,Boulevar Sur,BULEVARD SUD,Urbana,2,1,68,,,,Tráfico,2025-11-27 17:00:00,Razonablemente Buena,A02_BULEVARDSUD_60m,39.4503960055054,-0.396337564375856,2025-11-27 17:57:16.059092
233,12,Dr. Lluch,DR.LLUCH,Urbana,,76,,,22,3,Tráfico,2025-11-27 17:00:00,Razonablemente Buena,A08_DR_LLUCH_60m,39.4666847554611,-0.328289489402739,2025-11-27 17:57:16.059092
234,15,Molí del Sol,MOLÍ DEL SOL,Suburbana,3,0,57,0,12,4,Tráfico,2025-11-27 17:00:00,Razonablemente Buena,A03_MOLISOL_60m,39.4811121109041,-0.408809896900938,2025-11-27 17:57:16.059092
235,17,Universidad Politécnica,POLITÈCNIC,Suburbana,0,27,53,,7,3,Fondo,2025-11-27 17:00:00,Razonablemente Buena,A05_POLITECNIC_60m,39.4796444969291,-0.337400660521869,2025-11-27 17:57:16.059092
236,18,Viveros,VIVERS,Urbana,0,38,50,,,,Fondo,2025-11-27 17:00:00,Buena,A06_VIVERS_60m,39.4796409248053,-0.36964822314381,2025-11-27 17:57:16.059092
237,13,Francia,AVDA.FRANCIA,Urbana,1,8,32,0,16,4,Tráfico,2025-11-27 13:00:00,Buena,A01_AVFRANCIA_60m,39.4578268875183,-0.342986232422652,2025-11-27 17:57:16.059092
238,19,Centro,VALÈNCIA CENTRE,Urbana,,41,,,15,4,Tráfico,2025-11-27 17:00:00,Razonablemente Buena,A07_VALENCIACENTRE_60m,39.4705476702601,-0.376397651655324,2025-11-27 17:57:16.059092
239,16,Pista de Silla,PISTA DE SILLA,Urbana,3,57,55,0,17,5,Tráfico,2025-11-27 17:00:00,Razonablemente Buena,A04_PISTASILLA_60m,39.4580609536967,-0.376643936579157,2025-11-27 17:57:16.059092
240,21,Olivereta,OLIVERETA,Urbana,,70,,,19,6,Tráfico,2025-11-27 17:00:00,Buena,A10_OLIVERETA_60m,39.4692442350919,-0.405923445529068,2025-11-27 17:57:16.059092
241,22,Patraix,PATRAIX,Urbana,,82,,,23,7,Tráfico,2025-11-27 17:00:00,Razonablemente Buena,A11_PATRAIX_60m,39.4591890899964,-0.401411329219129,2025-11-27 17:57:16.059092
242,20,Cabanyal,CABANYAL,Urbana,,52,,,11,3,Fondo,2025-11-27 17:00:00,Razonablemente Buena,A09_CABANYAL_60m,39.4743907853568,-0.328534813492744,2025-11-27 17:57:16.059092
243,14,Boulevar Sur,BULEVARD SUD,Urbana,2,1,68,,,,Tráfico,2025-11-27 17:00:00,Razonablemente Buena,A02_BULEVARDSUD_60m,39.4503960055054,-0.396337564375856,2025-11-27 18:12:16.430872
244,12,Dr. Lluch,DR.LLUCH,Urbana,,76,,,22,3,Tráfico,2025-11-27 17:00:00,Razonablemente Buena,A08_DR_LLUCH_60m,39.4666847554611,-0.328289489402739,2025-11-27 18:12:16.430872
245,15,Molí del Sol,MOLÍ DEL SOL,Suburbana,3,0,57,0,12,4,Tráfico,2025-11-27 17:00:00,Razonablemente Buena,A03_MOLISOL_60m,39.4811121109041,-0.408809896900938,2025-11-27 18:12:16.430872
246,17,Universidad Politécnica,POLITÈCNIC,Suburbana,0,27,53,,7,3,Fondo,2025-11-27 17:00:00,Razonablemente Buena,A05_POLITECNIC_60m,39.4796444969291,-0.337400660521869,2025-11-27 18:12:16.430872
247,18,Viveros,VIVERS,Urbana,0,38,50,,,,Fondo,2025-11-27 17:00:00,Buena,A06_VIVERS_60m,39.4796409248053,-0.36964822314381,2025-11-27 18:12:16.430872
248,13,Francia,AVDA.FRANCIA,Urbana,1,8,32,0,16,4,Tráfico,2025-11-27 13:00:00,Buena,A01_AVFRANCIA_60m,39.4578268875183,-0.342986232422652,2025-11-27 18:12:16.430872
249,19,Centro,VALÈNCIA CENTRE,Urbana,,41,,,15,4,Tráfico,2025-11-27 17:00:00,Razonablemente Buena,A07_VALENCIACENTRE_60m,39.4705476702601,-0.376397651655324,2025-11-27 18:12:16.430872
250,16,Pista de Silla,PISTA DE SILLA,Urbana,3,57,55,0,17,5,Tráfico,2025-11-27 17:00:00,Razonablemente Buena,A04_PISTASILLA_60m,39.4580609536967,-0.376643936579157,2025-11-27 18:12:16.430872
251,21,Olivereta,OLIVERETA,Urbana,,70,,,19,6,Tráfico,2025-11-27 17:00:00,Buena,A10_OLIVERETA_60m,39.4692442350919,-0.405923445529068,2025-11-27 18:12:16.430872
252,22,Patraix,PATRAIX,Urbana,,82,,,23,7,Tráfico,2025-11-27 17:00:00,Razonablemente Buena,A11_PATRAIX_60m,39.4591890899964,-0.401411329219129,2025-11-27 18:12:16.430872
253,20,Cabanyal,CABANYAL,Urbana,,52,,,11,3,Fondo,2025-11-27 17:00:00,Razonablemente Buena,A09_CABANYAL_60m,39.4743907853568,-0.328534813492744,2025-11-27 18:12:16.430872
254,14,Boulevar Sur,BULEVARD SUD,Urbana,4,34,18,,,,Tráfico,2025-11-28 11:00:00,Buena,A02_BULEVARDSUD_60m,39.4503960055054,-0.396337564375856,2025-11-28 11:40:48.881311
255,12,Dr. Lluch,DR.LLUCH,Urbana,,61,,,32,11,Tráfico,2025-11-28 11:00:00,Razonablemente Buena,A08_DR_LLUCH_60m,39.4666847554611,-0.328289489402739,2025-11-28 11:40:48.881311
256,19,Centro,VALÈNCIA CENTRE,Urbana,,44,,,30,11,Tráfico,2025-11-28 11:00:00,Razonablemente Buena,A07_VALENCIACENTRE_60m,39.4705476702601,-0.376397651655324,2025-11-28 11:40:48.881311
257,13,Francia,AVDA.FRANCIA,Urbana,2,38,12,0,44,9,Tráfico,2025-11-28 11:00:00,Regular,A01_AVFRANCIA_60m,39.4578268875183,-0.342986232422652,2025-11-28 11:40:48.881311
258,22,Patraix,PATRAIX,Urbana,,73,,,35,12,Tráfico,2025-11-28 11:00:00,Razonablemente Buena,A11_PATRAIX_60m,39.4591890899964,-0.401411329219129,2025-11-28 11:40:48.881311
259,17,Universidad Politécnica,POLITÈCNIC,Suburbana,2,16,23,,20,9,Fondo,2025-11-28 11:00:00,Buena,A05_POLITECNIC_60m,39.4796444969291,-0.337400660521869,2025-11-28 11:40:48.881311
260,20,Cabanyal,CABANYAL,Urbana,,41,,,23,10,Fondo,2025-11-28 11:00:00,Razonablemente Buena,A09_CABANYAL_60m,39.4743907853568,-0.328534813492744,2025-11-28 11:40:48.881311
261,18,Viveros,VIVERS,Urbana,2,25,23,,,,Fondo,2025-11-28 11:00:00,Buena,A06_VIVERS_60m,39.4796409248053,-0.36964822314381,2025-11-28 11:40:48.881311
262,21,Olivereta,OLIVERETA,Urbana,,70,,,40,14,Tráfico,2025-11-28 11:00:00,Razonablemente Buena,A10_OLIVERETA_60m,39.4692442350919,-0.405923445529068,2025-11-28 11:40:48.881311
263,15,Molí del Sol,MOLÍ DEL SOL,Suburbana,2,0,18,0,26,10,Tráfico,2025-11-28 11:00:00,Razonablemente Buena,A03_MOLISOL_60m,39.4811121109041,-0.408809896900938,2025-11-28 11:40:48.881311
264,16,Pista de Silla,PISTA DE SILLA,Urbana,2,41,21,0,35,12,Tráfico,2025-11-28 11:00:00,Razonablemente Buena,A04_PISTASILLA_60m,39.4580609536967,-0.376643936579157,2025-11-28 11:40:48.881311
265,14,Boulevar Sur,BULEVARD SUD,Urbana,4,34,18,,,,Tráfico,2025-11-28 11:00:00,Buena,A02_BULEVARDSUD_60m,39.4503960055054,-0.396337564375856,2025-11-28 11:55:51.080311
266,12,Dr. Lluch,DR.LLUCH,Urbana,,61,,,32,11,Tráfico,2025-11-28 11:00:00,Razonablemente Buena,A08_DR_LLUCH_60m,39.4666847554611,-0.328289489402739,2025-11-28 11:55:51.080311
267,19,Centro,VALÈNCIA CENTRE,Urbana,,44,,,30,11,Tráfico,2025-11-28 11:00:00,Razonablemente Buena,A07_VALENCIACENTRE_60m,39.4705476702601,-0.376397651655324,2025-11-28 11:55:51.080311
268,13,Francia,AVDA.FRANCIA,Urbana,2,38,12,0,44,9,Tráfico,2025-11-28 11:00:00,Regular,A01_AVFRANCIA_60m,39.4578268875183,-0.342986232422652,2025-11-28 11:55:51.080311
269,22,Patraix,PATRAIX,Urbana,,73,,,35,12,Tráfico,2025-11-28 11:00:00,Razonablemente Buena,A11_PATRAIX_60m,39.4591890899964,-0.401411329219129,2025-11-28 11:55:51.080311
270,17,Universidad Politécnica,POLITÈCNIC,Suburbana,2,16,23,,20,9,Fondo,2025-11-28 11:00:00,Buena,A05_POLITECNIC_60m,39.4796444969291,-0.337400660521869,2025-11-28 11:55:51.080311
271,20,Cabanyal,CABANYAL,Urbana,,41,,,23,10,Fondo,2025-11-28 11:00:00,Razonablemente Buena,A09_CABANYAL_60m,39.4743907853568,-0.328534813492744,2025-11-28 11:55:51.080311
272,18,Viveros,VIVERS,Urbana,2,25,23,,,,Fondo,2025-11-28 11:00:00,Buena,A06_VIVERS_60m,39.4796409248053,-0.36964822314381,2025-11-28 11:55:51.080311
273,21,Olivereta,OLIVERETA,Urbana,,70,,,40,14,Tráfico,2025-11-28 11:00:00,Razonablemente Buena,A10_OLIVERETA_60m,39.4692442350919,-0.405923445529068,2025-11-28 11:55:51.080311
274,15,Molí del Sol,MOLÍ DEL SOL,Suburbana,2,0,18,0,26,10,Tráfico,2025-11-28 11:00:00,Razonablemente Buena,A03_MOLISOL_60m,39.4811121109041,-0.408809896900938,2025-11-28 11:55:51.080311
275,16,Pista de Silla,PISTA DE SILLA,Urbana,2,41,21,0,35,12,Tráfico,2025-11-28 11:00:00,Razonablemente Buena,A04_PISTASILLA_60m,39.4580609536967,-0.376643936579157,2025-11-28 11:55:51.080311
276,16,Pista de Silla,PISTA DE SILLA,Urbana,2,63,45,0,29,17,Tráfico,2025-11-29 19:00:00,Razonablemente Buena,A04_PISTASILLA_60m,39.4580609536967,-0.376643936579157,2025-11-29 19:44:46.170375
277,18,Viveros,VIVERS,Urbana,0,35,41,,,,Fondo,2025-11-29 19:00:00,Buena,A06_VIVERS_60m,39.4796409248053,-0.36964822314381,2025-11-29 19:44:46.170375
278,19,Centro,VALÈNCIA CENTRE,Urbana,,39,,,31,15,Tráfico,2025-11-29 19:00:00,Razonablemente Buena,A07_VALENCIACENTRE_60m,39.4705476702601,-0.376397651655324,2025-11-29 19:44:46.170375
279,22,Patraix,PATRAIX,Urbana,,100,,,35,17,Tráfico,2025-11-29 19:00:00,Regular,A11_PATRAIX_60m,39.4591890899964,-0.401411329219129,2025-11-29 19:44:46.170375
280,15,Molí del Sol,MOLÍ DEL SOL,Suburbana,0,0,43,0,25,15,Tráfico,2025-11-29 19:00:00,Razonablemente Buena,A03_MOLISOL_60m,39.4811121109041,-0.408809896900938,2025-11-29 19:44:46.170375
281,17,Universidad Politécnica,POLITÈCNIC,Suburbana,1,11,42,,23,16,Fondo,2025-11-29 19:00:00,Razonablemente Buena,A05_POLITECNIC_60m,39.4796444969291,-0.337400660521869,2025-11-29 19:44:46.170375
282,14,Boulevar Sur,BULEVARD SUD,Urbana,3,40,57,,,,Tráfico,2025-11-29 19:00:00,Razonablemente Buena,A02_BULEVARDSUD_60m,39.4503960055054,-0.396337564375856,2025-11-29 19:44:46.170375
283,12,Dr. Lluch,DR.LLUCH,Urbana,,41,,,33,20,Tráfico,2025-11-29 19:00:00,Razonablemente Buena,A08_DR_LLUCH_60m,39.4666847554611,-0.328289489402739,2025-11-29 19:44:46.170375
284,21,Olivereta,OLIVERETA,Urbana,,70,,,39,24,Tráfico,2025-11-29 19:00:00,Regular,A10_OLIVERETA_60m,39.4692442350919,-0.405923445529068,2025-11-29 19:44:46.170375
285,13,Francia,AVDA.FRANCIA,Urbana,2,40,47,0,30,13,Tráfico,2025-11-29 19:00:00,Razonablemente Buena,A01_AVFRANCIA_60m,39.4578268875183,-0.342986232422652,2025-11-29 19:44:46.170375
286,20,Cabanyal,CABANYAL,Urbana,,28,,,24,16,Fondo,2025-11-29 19:00:00,Razonablemente Buena,A09_CABANYAL_60m,39.4743907853568,-0.328534813492744,2025-11-29 19:44:46.170375
287,16,Pista de Silla,PISTA DE SILLA,Urbana,2,63,45,0,29,17,Tráfico,2025-11-29 19:00:00,Razonablemente Buena,A04_PISTASILLA_60m,39.4580609536967,-0.376643936579157,2025-11-29 19:59:46.533236
288,18,Viveros,VIVERS,Urbana,0,35,41,,,,Fondo,2025-11-29 19:00:00,Buena,A06_VIVERS_60m,39.4796409248053,-0.36964822314381,2025-11-29 19:59:46.533236
289,19,Centro,VALÈNCIA CENTRE,Urbana,,39,,,31,15,Tráfico,2025-11-29 19:00:00,Razonablemente Buena,A07_VALENCIACENTRE_60m,39.4705476702601,-0.376397651655324,2025-11-29 19:59:46.533236
290,22,Patraix,PATRAIX,Urbana,,100,,,35,17,Tráfico,2025-11-29 19:00:00,Regular,A11_PATRAIX_60m,39.4591890899964,-0.401411329219129,2025-11-29 19:59:46.533236
291,15,Molí del Sol,MOLÍ DEL SOL,Suburbana,0,0,43,0,25,15,Tráfico,2025-11-29 19:00:00,Razonablemente Buena,A03_MOLISOL_60m,39.4811121109041,-0.408809896900938,2025-11-29 19:59:46.533236
292,17,Universidad Politécnica,POLITÈCNIC,Suburbana,1,11,42,,23,16,Fondo,2025-11-29 19:00:00,Razonablemente Buena,A05_POLITECNIC_60m,39.4796444969291,-0.337400660521869,2025-11-29 19:59:46.533236
293,14,Boulevar Sur,BULEVARD SUD,Urbana,3,40,57,,,,Tráfico,2025-11-29 19:00:00,Razonablemente Buena,A02_BULEVARDSUD_60m,39.4503960055054,-0.396337564375856,2025-11-29 19:59:46.533236
294,12,Dr. Lluch,DR.LLUCH,Urbana,,41,,,33,20,Tráfico,2025-11-29 19:00:00,Razonablemente Buena,A08_DR_LLUCH_60m,39.4666847554611,-0.328289489402739,2025-11-29 19:59:46.533236
295,21,Olivereta,OLIVERETA,Urbana,,70,,,39,24,Tráfico,2025-11-29 19:00:00,Regular,A10_OLIVERETA_60m,39.4692442350919,-0.405923445529068,2025-11-29 19:59:46.533236
296,13,Francia,AVDA.FRANCIA,Urbana,2,40,47,0,30,13,Tráfico,2025-11-29 19:00:00,Razonablemente Buena,A01_AVFRANCIA_60m,39.4578268875183,-0.342986232422652,2025-11-29 19:59:46.533236
297,20,Cabanyal,CABANYAL,Urbana,,28,,,24,16,Fondo,2025-11-29 19:00:00,Razonablemente Buena,A09_CABANYAL_60m,39.4743907853568,-0.328534813492744,2025-11-29 19:59:46.533236
298,16,Pista de Silla,PISTA DE SILLA,Urbana,2,63,45,0,29,17,Tráfico,2025-11-29 19:00:00,Razonablemente Buena,A04_PISTASILLA_60m,39.4580609536967,-0.376643936579157,2025-11-29 20:14:46.889539
299,18,Viveros,VIVERS,Urbana,0,35,41,,,,Fondo,2025-11-29 19:00:00,Buena,A06_VIVERS_60m,39.4796409248053,-0.36964822314381,2025-11-29 20:14:46.889539
300,19,Centro,VALÈNCIA CENTRE,Urbana,,39,,,31,15,Tráfico,2025-11-29 19:00:00,Razonablemente Buena,A07_VALENCIACENTRE_60m,39.4705476702601,-0.376397651655324,2025-11-29 20:14:46.889539
301,22,Patraix,PATRAIX,Urbana,,100,,,35,17,Tráfico,2025-11-29 19:00:00,Regular,A11_PATRAIX_60m,39.4591890899964,-0.401411329219129,2025-11-29 20:14:46.889539
302,15,Molí del Sol,MOLÍ DEL SOL,Suburbana,0,0,43,0,25,15,Tráfico,2025-11-29 19:00:00,Razonablemente Buena,A03_MOLISOL_60m,39.4811121109041,-0.408809896900938,2025-11-29 20:14:46.889539
303,17,Universidad Politécnica,POLITÈCNIC,Suburbana,1,11,42,,23,16,Fondo,2025-11-29 19:00:00,Razonablemente Buena,A05_POLITECNIC_60m,39.4796444969291,-0.337400660521869,2025-11-29 20:14:46.889539
304,14,Boulevar Sur,BULEVARD SUD,Urbana,3,40,57,,,,Tráfico,2025-11-29 19:00:00,Razonablemente Buena,A02_BULEVARDSUD_60m,39.4503960055054,-0.396337564375856,2025-11-29 20:14:46.889539
305,12,Dr. Lluch,DR.LLUCH,Urbana,,41,,,33,20,Tráfico,2025-11-29 19:00:00,Razonablemente Buena,A08_DR_LLUCH_60m,39.4666847554611,-0.328289489402739,2025-11-29 20:14:46.889539
306,21,Olivereta,OLIVERETA,Urbana,,70,,,39,24,Tráfico,2025-11-29 19:00:00,Regular,A10_OLIVERETA_60m,39.4692442350919,-0.405923445529068,2025-11-29 20:14:46.889539
307,13,Francia,AVDA.FRANCIA,Urbana,2,40,47,0,30,13,Tráfico,2025-11-29 19:00:00,Razonablemente Buena,A01_AVFRANCIA_60m,39.4578268875183,-0.342986232422652,2025-11-29 20:14:46.889539
308,20,Cabanyal,CABANYAL,Urbana,,28,,,24,16,Fondo,2025-11-29 19:00:00,Razonablemente Buena,A09_CABANYAL_60m,39.4743907853568,-0.328534813492744,2025-11-29 20:14:46.889539
309,16,Pista de Silla,PISTA DE SILLA,Urbana,2,63,45,0,29,17,Tráfico,2025-11-29 19:00:00,Razonablemente Buena,A04_PISTASILLA_60m,39.4580609536967,-0.376643936579157,2025-11-29 20:29:47.186256
310,18,Viveros,VIVERS,Urbana,0,35,41,,,,Fondo,2025-11-29 19:00:00,Buena,A06_VIVERS_60m,39.4796409248053,-0.36964822314381,2025-11-29 20:29:47.186256
311,19,Centro,VALÈNCIA CENTRE,Urbana,,39,,,31,15,Tráfico,2025-11-29 19:00:00,Razonablemente Buena,A07_VALENCIACENTRE_60m,39.4705476702601,-0.376397651655324,2025-11-29 20:29:47.186256
312,22,Patraix,PATRAIX,Urbana,,100,,,35,17,Tráfico,2025-11-29 19:00:00,Regular,A11_PATRAIX_60m,39.4591890899964,-0.401411329219129,2025-11-29 20:29:47.186256
313,15,Molí del Sol,MOLÍ DEL SOL,Suburbana,0,0,43,0,25,15,Tráfico,2025-11-29 19:00:00,Razonablemente Buena,A03_MOLISOL_60m,39.4811121109041,-0.408809896900938,2025-11-29 20:29:47.186256
314,17,Universidad Politécnica,POLITÈCNIC,Suburbana,1,11,42,,23,16,Fondo,2025-11-29 19:00:00,Razonablemente Buena,A05_POLITECNIC_60m,39.4796444969291,-0.337400660521869,2025-11-29 20:29:47.186256
315,14,Boulevar Sur,BULEVARD SUD,Urbana,3,40,57,,,,Tráfico,2025-11-29 19:00:00,Razonablemente Buena,A02_BULEVARDSUD_60m,39.4503960055054,-0.396337564375856,2025-11-29 20:29:47.186256
316,12,Dr. Lluch,DR.LLUCH,Urbana,,41,,,33,20,Tráfico,2025-11-29 19:00:00,Razonablemente Buena,A08_DR_LLUCH_60m,39.4666847554611,-0.328289489402739,2025-11-29 20:29:47.186256
317,21,Olivereta,OLIVERETA,Urbana,,70,,,39,24,Tráfico,2025-11-29 19:00:00,Regular,A10_OLIVERETA_60m,39.4692442350919,-0.405923445529068,2025-11-29 20:29:47.186256
318,13,Francia,AVDA.FRANCIA,Urbana,2,40,47,0,30,13,Tráfico,2025-11-29 19:00:00,Razonablemente Buena,A01_AVFRANCIA_60m,39.4578268875183,-0.342986232422652,2025-11-29 20:29:47.186256
319,20,Cabanyal,CABANYAL,Urbana,,28,,,24,16,Fondo,2025-11-29 19:00:00,Razonablemente Buena,A09_CABANYAL_60m,39.4743907853568,-0.328534813492744,2025-11-29 20:29:47.186256
320,13,Francia,AVDA.FRANCIA,Urbana,2,10,50,0,19,10,Tráfico,2025-11-30 08:00:00,Buena,A01_AVFRANCIA_60m,39.4578268875183,-0.342986232422652,2025-11-30 09:03:29.294621
321,22,Patraix,PATRAIX,Urbana,,46,,,35,13,Tráfico,2025-11-30 08:00:00,Razonablemente Buena,A11_PATRAIX_60m,39.4591890899964,-0.401411329219129,2025-11-30 09:03:29.294621
322,15,Molí del Sol,MOLÍ DEL SOL,Suburbana,2,0,47,0,21,13,Tráfico,2025-11-30 08:00:00,Razonablemente Buena,A03_MOLISOL_60m,39.4811121109041,-0.408809896900938,2025-11-30 09:03:29.294621
323,16,Pista de Silla,PISTA DE SILLA,Urbana,2,14,60,0,22,13,Tráfico,2025-11-30 08:00:00,Razonablemente Buena,A04_PISTASILLA_60m,39.4580609536967,-0.376643936579157,2025-11-30 09:03:29.294621
324,14,Boulevar Sur,BULEVARD SUD,Urbana,3,6,59,,,,Tráfico,2025-11-30 08:00:00,Razonablemente Buena,A02_BULEVARDSUD_60m,39.4503960055054,-0.396337564375856,2025-11-30 09:03:29.294621
325,12,Dr. Lluch,DR.LLUCH,Urbana,,14,,,25,13,Tráfico,2025-11-30 08:00:00,Razonablemente Buena,A08_DR_LLUCH_60m,39.4666847554611,-0.328289489402739,2025-11-30 09:03:29.294621
326,21,Olivereta,OLIVERETA,Urbana,,70,,,28,17,Tráfico,2025-11-30 08:00:00,Razonablemente Buena,A10_OLIVERETA_60m,39.4692442350919,-0.405923445529068,2025-11-30 09:03:29.294621
327,20,Cabanyal,CABANYAL,Urbana,,12,,,18,13,Fondo,2025-11-30 08:00:00,Razonablemente Buena,A09_CABANYAL_60m,39.4743907853568,-0.328534813492744,2025-11-30 09:03:29.294621
328,18,Viveros,VIVERS,Urbana,0,11,42,,,,Fondo,2025-11-30 08:00:00,Buena,A06_VIVERS_60m,39.4796409248053,-0.36964822314381,2025-11-30 09:03:29.294621
329,19,Centro,VALÈNCIA CENTRE,Urbana,,18,,,24,13,Tráfico,2025-11-30 08:00:00,Razonablemente Buena,A07_VALENCIACENTRE_60m,39.4705476702601,-0.376397651655324,2025-11-30 09:03:29.294621
330,17,Universidad Politécnica,POLITÈCNIC,Suburbana,2,11,49,,15,11,Fondo,2025-11-30 08:00:00,Razonablemente Buena,A05_POLITECNIC_60m,39.4796444969291,-0.337400660521869,2025-11-30 09:03:29.294621
331,13,Francia,AVDA.FRANCIA,Urbana,2,10,50,0,19,10,Tráfico,2025-11-30 08:00:00,Buena,A01_AVFRANCIA_60m,39.4578268875183,-0.342986232422652,2025-11-30 09:18:29.692379
332,22,Patraix,PATRAIX,Urbana,,46,,,35,13,Tráfico,2025-11-30 08:00:00,Razonablemente Buena,A11_PATRAIX_60m,39.4591890899964,-0.401411329219129,2025-11-30 09:18:29.692379
333,15,Molí del Sol,MOLÍ DEL SOL,Suburbana,2,0,47,0,21,13,Tráfico,2025-11-30 08:00:00,Razonablemente Buena,A03_MOLISOL_60m,39.4811121109041,-0.408809896900938,2025-11-30 09:18:29.692379
334,16,Pista de Silla,PISTA DE SILLA,Urbana,2,14,60,0,22,13,Tráfico,2025-11-30 08:00:00,Razonablemente Buena,A04_PISTASILLA_60m,39.4580609536967,-0.376643936579157,2025-11-30 09:18:29.692379
335,14,Boulevar Sur,BULEVARD SUD,Urbana,3,6,59,,,,Tráfico,2025-11-30 08:00:00,Razonablemente Buena,A02_BULEVARDSUD_60m,39.4503960055054,-0.396337564375856,2025-11-30 09:18:29.692379
336,12,Dr. Lluch,DR.LLUCH,Urbana,,14,,,25,13,Tráfico,2025-11-30 08:00:00,Razonablemente Buena,A08_DR_LLUCH_60m,39.4666847554611,-0.328289489402739,2025-11-30 09:18:29.692379
337,21,Olivereta,OLIVERETA,Urbana,,70,,,28,17,Tráfico,2025-11-30 08:00:00,Razonablemente Buena,A10_OLIVERETA_60m,39.4692442350919,-0.405923445529068,2025-11-30 09:18:29.692379
338,20,Cabanyal,CABANYAL,Urbana,,12,,,18,13,Fondo,2025-11-30 08:00:00,Razonablemente Buena,A09_CABANYAL_60m,39.4743907853568,-0.328534813492744,2025-11-30 09:18:29.692379
339,18,Viveros,VIVERS,Urbana,0,11,42,,,,Fondo,2025-11-30 08:00:00,Buena,A06_VIVERS_60m,39.4796409248053,-0.36964822314381,2025-11-30 09:18:29.692379
340,19,Centro,VALÈNCIA CENTRE,Urbana,,18,,,24,13,Tráfico,2025-11-30 08:00:00,Razonablemente Buena,A07_VALENCIACENTRE_60m,39.4705476702601,-0.376397651655324,2025-11-30 09:18:29.692379
341,17,Universidad Politécnica,POLITÈCNIC,Suburbana,2,11,49,,15,11,Fondo,2025-11-30 08:00:00,Razonablemente Buena,A05_POLITECNIC_60m,39.4796444969291,-0.337400660521869,2025-11-30 09:18:29.692379
342,21,Olivereta,OLIVERETA,Urbana,,70,,,27,16,Tráfico,2025-11-30 09:00:00,Razonablemente Buena,A10_OLIVERETA_60m,39.4692442350919,-0.405923445529068,2025-11-30 09:33:29.961027
343,14,Boulevar Sur,BULEVARD SUD,Urbana,4,18,56,,,,Tráfico,2025-11-30 09:00:00,Razonablemente Buena,A02_BULEVARDSUD_60m,39.4503960055054,-0.396337564375856,2025-11-30 09:33:29.961027
344,19,Centro,VALÈNCIA CENTRE,Urbana,,25,,,24,13,Tráfico,2025-11-30 09:00:00,Razonablemente Buena,A07_VALENCIACENTRE_60m,39.4705476702601,-0.376397651655324,2025-11-30 09:33:29.961027
345,15,Molí del Sol,MOLÍ DEL SOL,Suburbana,2,0,43,0,20,12,Tráfico,2025-11-30 09:00:00,Razonablemente Buena,A03_MOLISOL_60m,39.4811121109041,-0.408809896900938,2025-11-30 09:33:29.961027
346,16,Pista de Silla,PISTA DE SILLA,Urbana,2,16,56,0,22,13,Tráfico,2025-11-30 09:00:00,Razonablemente Buena,A04_PISTASILLA_60m,39.4580609536967,-0.376643936579157,2025-11-30 09:33:29.961027
347,17,Universidad Politécnica,POLITÈCNIC,Suburbana,2,12,46,,15,11,Fondo,2025-11-30 09:00:00,Razonablemente Buena,A05_POLITECNIC_60m,39.4796444969291,-0.337400660521869,2025-11-30 09:33:29.961027
348,13,Francia,AVDA.FRANCIA,Urbana,2,14,46,0,18,10,Tráfico,2025-11-30 09:00:00,Buena,A01_AVFRANCIA_60m,39.4578268875183,-0.342986232422652,2025-11-30 09:33:29.961027
349,22,Patraix,PATRAIX,Urbana,,45,,,35,13,Tráfico,2025-11-30 09:00:00,Razonablemente Buena,A11_PATRAIX_60m,39.4591890899964,-0.401411329219129,2025-11-30 09:33:29.961027
350,20,Cabanyal,CABANYAL,Urbana,,16,,,18,12,Fondo,2025-11-30 09:00:00,Razonablemente Buena,A09_CABANYAL_60m,39.4743907853568,-0.328534813492744,2025-11-30 09:33:29.961027
351,12,Dr. Lluch,DR.LLUCH,Urbana,,23,,,24,13,Tráfico,2025-11-30 09:00:00,Razonablemente Buena,A08_DR_LLUCH_60m,39.4666847554611,-0.328289489402739,2025-11-30 09:33:29.961027
352,18,Viveros,VIVERS,Urbana,0,14,40,,,,Fondo,2025-11-30 09:00:00,Buena,A06_VIVERS_60m,39.4796409248053,-0.36964822314381,2025-11-30 09:33:29.961027
353,21,Olivereta,OLIVERETA,Urbana,,70,,,27,16,Tráfico,2025-11-30 09:00:00,Razonablemente Buena,A10_OLIVERETA_60m,39.4692442350919,-0.405923445529068,2025-11-30 09:48:30.393693
354,14,Boulevar Sur,BULEVARD SUD,Urbana,4,18,56,,,,Tráfico,2025-11-30 09:00:00,Razonablemente Buena,A02_BULEVARDSUD_60m,39.4503960055054,-0.396337564375856,2025-11-30 09:48:30.393693
355,19,Centro,VALÈNCIA CENTRE,Urbana,,25,,,24,13,Tráfico,2025-11-30 09:00:00,Razonablemente Buena,A07_VALENCIACENTRE_60m,39.4705476702601,-0.376397651655324,2025-11-30 09:48:30.393693
356,15,Molí del Sol,MOLÍ DEL SOL,Suburbana,2,0,43,0,20,12,Tráfico,2025-11-30 09:00:00,Razonablemente Buena,A03_MOLISOL_60m,39.4811121109041,-0.408809896900938,2025-11-30 09:48:30.393693
357,16,Pista de Silla,PISTA DE SILLA,Urbana,2,16,56,0,22,13,Tráfico,2025-11-30 09:00:00,Razonablemente Buena,A04_PISTASILLA_60m,39.4580609536967,-0.376643936579157,2025-11-30 09:48:30.393693
358,17,Universidad Politécnica,POLITÈCNIC,Suburbana,2,12,46,,15,11,Fondo,2025-11-30 09:00:00,Razonablemente Buena,A05_POLITECNIC_60m,39.4796444969291,-0.337400660521869,2025-11-30 09:48:30.393693
359,13,Francia,AVDA.FRANCIA,Urbana,2,14,46,0,18,10,Tráfico,2025-11-30 09:00:00,Buena,A01_AVFRANCIA_60m,39.4578268875183,-0.342986232422652,2025-11-30 09:48:30.393693
360,22,Patraix,PATRAIX,Urbana,,45,,,35,13,Tráfico,2025-11-30 09:00:00,Razonablemente Buena,A11_PATRAIX_60m,39.4591890899964,-0.401411329219129,2025-11-30 09:48:30.393693
361,20,Cabanyal,CABANYAL,Urbana,,16,,,18,12,Fondo,2025-11-30 09:00:00,Razonablemente Buena,A09_CABANYAL_60m,39.4743907853568,-0.328534813492744,2025-11-30 09:48:30.393693
362,12,Dr. Lluch,DR.LLUCH,Urbana,,23,,,24,13,Tráfico,2025-11-30 09:00:00,Razonablemente Buena,A08_DR_LLUCH_60m,39.4666847554611,-0.328289489402739,2025-11-30 09:48:30.393693
363,18,Viveros,VIVERS,Urbana,0,14,40,,,,Fondo,2025-11-30 09:00:00,Buena,A06_VIVERS_60m,39.4796409248053,-0.36964822314381,2025-11-30 09:48:30.393693
364,21,Olivereta,OLIVERETA,Urbana,,70,,,27,16,Tráfico,2025-11-30 09:00:00,Razonablemente Buena,A10_OLIVERETA_60m,39.4692442350919,-0.405923445529068,2025-11-30 10:03:30.825821
365,14,Boulevar Sur,BULEVARD SUD,Urbana,4,18,56,,,,Tráfico,2025-11-30 09:00:00,Razonablemente Buena,A02_BULEVARDSUD_60m,39.4503960055054,-0.396337564375856,2025-11-30 10:03:30.825821
366,19,Centro,VALÈNCIA CENTRE,Urbana,,25,,,24,13,Tráfico,2025-11-30 09:00:00,Razonablemente Buena,A07_VALENCIACENTRE_60m,39.4705476702601,-0.376397651655324,2025-11-30 10:03:30.825821
367,15,Molí del Sol,MOLÍ DEL SOL,Suburbana,2,0,43,0,20,12,Tráfico,2025-11-30 09:00:00,Razonablemente Buena,A03_MOLISOL_60m,39.4811121109041,-0.408809896900938,2025-11-30 10:03:30.825821
368,16,Pista de Silla,PISTA DE SILLA,Urbana,2,16,56,0,22,13,Tráfico,2025-11-30 09:00:00,Razonablemente Buena,A04_PISTASILLA_60m,39.4580609536967,-0.376643936579157,2025-11-30 10:03:30.825821
369,17,Universidad Politécnica,POLITÈCNIC,Suburbana,2,12,46,,15,11,Fondo,2025-11-30 09:00:00,Razonablemente Buena,A05_POLITECNIC_60m,39.4796444969291,-0.337400660521869,2025-11-30 10:03:30.825821
370,13,Francia,AVDA.FRANCIA,Urbana,2,14,46,0,18,10,Tráfico,2025-11-30 09:00:00,Buena,A01_AVFRANCIA_60m,39.4578268875183,-0.342986232422652,2025-11-30 10:03:30.825821
371,22,Patraix,PATRAIX,Urbana,,45,,,35,13,Tráfico,2025-11-30 09:00:00,Razonablemente Buena,A11_PATRAIX_60m,39.4591890899964,-0.401411329219129,2025-11-30 10:03:30.825821
372,20,Cabanyal,CABANYAL,Urbana,,16,,,18,12,Fondo,2025-11-30 09:00:00,Razonablemente Buena,A09_CABANYAL_60m,39.4743907853568,-0.328534813492744,2025-11-30 10:03:30.825821
373,12,Dr. Lluch,DR.LLUCH,Urbana,,23,,,24,13,Tráfico,2025-11-30 09:00:00,Razonablemente Buena,A08_DR_LLUCH_60m,39.4666847554611,-0.328289489402739,2025-11-30 10:03:30.825821
374,18,Viveros,VIVERS,Urbana,0,14,40,,,,Fondo,2025-11-30 09:00:00,Buena,A06_VIVERS_60m,39.4796409248053,-0.36964822314381,2025-11-30 10:03:30.825821
375,21,Olivereta,OLIVERETA,Urbana,,70,,,27,16,Tráfico,2025-11-30 09:00:00,Razonablemente Buena,A10_OLIVERETA_60m,39.4692442350919,-0.405923445529068,2025-11-30 10:18:31.160862
376,14,Boulevar Sur,BULEVARD SUD,Urbana,4,18,56,,,,Tráfico,2025-11-30 09:00:00,Razonablemente Buena,A02_BULEVARDSUD_60m,39.4503960055054,-0.396337564375856,2025-11-30 10:18:31.160862
377,19,Centro,VALÈNCIA CENTRE,Urbana,,25,,,24,13,Tráfico,2025-11-30 09:00:00,Razonablemente Buena,A07_VALENCIACENTRE_60m,39.4705476702601,-0.376397651655324,2025-11-30 10:18:31.160862
378,15,Molí del Sol,MOLÍ DEL SOL,Suburbana,2,0,43,0,20,12,Tráfico,2025-11-30 09:00:00,Razonablemente Buena,A03_MOLISOL_60m,39.4811121109041,-0.408809896900938,2025-11-30 10:18:31.160862
379,16,Pista de Silla,PISTA DE SILLA,Urbana,2,16,56,0,22,13,Tráfico,2025-11-30 09:00:00,Razonablemente Buena,A04_PISTASILLA_60m,39.4580609536967,-0.376643936579157,2025-11-30 10:18:31.160862
380,17,Universidad Politécnica,POLITÈCNIC,Suburbana,2,12,46,,15,11,Fondo,2025-11-30 09:00:00,Razonablemente Buena,A05_POLITECNIC_60m,39.4796444969291,-0.337400660521869,2025-11-30 10:18:31.160862
381,13,Francia,AVDA.FRANCIA,Urbana,2,14,46,0,18,10,Tráfico,2025-11-30 09:00:00,Buena,A01_AVFRANCIA_60m,39.4578268875183,-0.342986232422652,2025-11-30 10:18:31.160862
382,22,Patraix,PATRAIX,Urbana,,45,,,35,13,Tráfico,2025-11-30 09:00:00,Razonablemente Buena,A11_PATRAIX_60m,39.4591890899964,-0.401411329219129,2025-11-30 10:18:31.160862
383,20,Cabanyal,CABANYAL,Urbana,,16,,,18,12,Fondo,2025-11-30 09:00:00,Razonablemente Buena,A09_CABANYAL_60m,39.4743907853568,-0.328534813492744,2025-11-30 10:18:31.160862
384,12,Dr. Lluch,DR.LLUCH,Urbana,,23,,,24,13,Tráfico,2025-11-30 09:00:00,Razonablemente Buena,A08_DR_LLUCH_60m,39.4666847554611,-0.328289489402739,2025-11-30 10:18:31.160862
385,18,Viveros,VIVERS,Urbana,0,14,40,,,,Fondo,2025-11-30 09:00:00,Buena,A06_VIVERS_60m,39.4796409248053,-0.36964822314381,2025-11-30 10:18:31.160862
386,17,Universidad Politécnica,POLITÈCNIC,Suburbana,2,11,43,,15,11,Fondo,2025-11-30 10:00:00,Razonablemente Buena,A05_POLITECNIC_60m,39.4796444969291,-0.337400660521869,2025-11-30 10:33:31.506408
387,19,Centro,VALÈNCIA CENTRE,Urbana,,24,,,24,13,Tráfico,2025-11-30 10:00:00,Razonablemente Buena,A07_VALENCIACENTRE_60m,39.4705476702601,-0.376397651655324,2025-11-30 10:33:31.506408
388,12,Dr. Lluch,DR.LLUCH,Urbana,,33,,,24,13,Tráfico,2025-11-30 10:00:00,Razonablemente Buena,A08_DR_LLUCH_60m,39.4666847554611,-0.328289489402739,2025-11-30 10:33:31.506408
389,22,Patraix,PATRAIX,Urbana,,42,,,35,13,Tráfico,2025-11-30 10:00:00,Razonablemente Buena,A11_PATRAIX_60m,39.4591890899964,-0.401411329219129,2025-11-30 10:33:31.506408
390,13,Francia,AVDA.FRANCIA,Urbana,2,20,42,0,18,10,Tráfico,2025-11-30 10:00:00,Buena,A01_AVFRANCIA_60m,39.4578268875183,-0.342986232422652,2025-11-30 10:33:31.506408
391,14,Boulevar Sur,BULEVARD SUD,Urbana,4,23,53,,,,Tráfico,2025-11-30 10:00:00,Razonablemente Buena,A02_BULEVARDSUD_60m,39.4503960055054,-0.396337564375856,2025-11-30 10:33:31.506408
392,21,Olivereta,OLIVERETA,Urbana,,70,,,27,17,Tráfico,2025-11-30 10:00:00,Razonablemente Buena,A10_OLIVERETA_60m,39.4692442350919,-0.405923445529068,2025-11-30 10:33:31.506408
393,15,Molí del Sol,MOLÍ DEL SOL,Suburbana,2,0,39,0,20,12,Tráfico,2025-11-30 10:00:00,Razonablemente Buena,A03_MOLISOL_60m,39.4811121109041,-0.408809896900938,2025-11-30 10:33:31.506408
394,16,Pista de Silla,PISTA DE SILLA,Urbana,2,26,52,0,22,13,Tráfico,2025-11-30 10:00:00,Razonablemente Buena,A04_PISTASILLA_60m,39.4580609536967,-0.376643936579157,2025-11-30 10:33:31.506408
395,20,Cabanyal,CABANYAL,Urbana,,25,,,18,13,Fondo,2025-11-30 10:00:00,Razonablemente Buena,A09_CABANYAL_60m,39.4743907853568,-0.328534813492744,2025-11-30 10:33:31.506408
396,18,Viveros,VIVERS,Urbana,0,16,38,,,,Fondo,2025-11-30 10:00:00,Buena,A06_VIVERS_60m,39.4796409248053,-0.36964822314381,2025-11-30 10:33:31.506408
397,17,Universidad Politécnica,POLITÈCNIC,Suburbana,2,11,43,,15,11,Fondo,2025-11-30 10:00:00,Razonablemente Buena,A05_POLITECNIC_60m,39.4796444969291,-0.337400660521869,2025-11-30 10:48:31.809344
398,19,Centro,VALÈNCIA CENTRE,Urbana,,24,,,24,13,Tráfico,2025-11-30 10:00:00,Razonablemente Buena,A07_VALENCIACENTRE_60m,39.4705476702601,-0.376397651655324,2025-11-30 10:48:31.809344
399,12,Dr. Lluch,DR.LLUCH,Urbana,,33,,,24,13,Tráfico,2025-11-30 10:00:00,Razonablemente Buena,A08_DR_LLUCH_60m,39.4666847554611,-0.328289489402739,2025-11-30 10:48:31.809344
400,22,Patraix,PATRAIX,Urbana,,42,,,35,13,Tráfico,2025-11-30 10:00:00,Razonablemente Buena,A11_PATRAIX_60m,39.4591890899964,-0.401411329219129,2025-11-30 10:48:31.809344
401,13,Francia,AVDA.FRANCIA,Urbana,2,20,42,0,18,10,Tráfico,2025-11-30 10:00:00,Buena,A01_AVFRANCIA_60m,39.4578268875183,-0.342986232422652,2025-11-30 10:48:31.809344
402,14,Boulevar Sur,BULEVARD SUD,Urbana,4,23,53,,,,Tráfico,2025-11-30 10:00:00,Razonablemente Buena,A02_BULEVARDSUD_60m,39.4503960055054,-0.396337564375856,2025-11-30 10:48:31.809344
403,21,Olivereta,OLIVERETA,Urbana,,70,,,27,17,Tráfico,2025-11-30 10:00:00,Razonablemente Buena,A10_OLIVERETA_60m,39.4692442350919,-0.405923445529068,2025-11-30 10:48:31.809344
404,15,Molí del Sol,MOLÍ DEL SOL,Suburbana,2,0,39,0,20,12,Tráfico,2025-11-30 10:00:00,Razonablemente Buena,A03_MOLISOL_60m,39.4811121109041,-0.408809896900938,2025-11-30 10:48:31.809344
405,16,Pista de Silla,PISTA DE SILLA,Urbana,2,26,52,0,22,13,Tráfico,2025-11-30 10:00:00,Razonablemente Buena,A04_PISTASILLA_60m,39.4580609536967,-0.376643936579157,2025-11-30 10:48:31.809344
406,20,Cabanyal,CABANYAL,Urbana,,25,,,18,13,Fondo,2025-11-30 10:00:00,Razonablemente Buena,A09_CABANYAL_60m,39.4743907853568,-0.328534813492744,2025-11-30 10:48:31.809344
407,18,Viveros,VIVERS,Urbana,0,16,38,,,,Fondo,2025-11-30 10:00:00,Buena,A06_VIVERS_60m,39.4796409248053,-0.36964822314381,2025-11-30 10:48:31.809344
408,17,Universidad Politécnica,POLITÈCNIC,Suburbana,2,11,43,,15,11,Fondo,2025-11-30 10:00:00,Razonablemente Buena,A05_POLITECNIC_60m,39.4796444969291,-0.337400660521869,2025-11-30 11:03:33.071611
409,19,Centro,VALÈNCIA CENTRE,Urbana,,24,,,24,13,Tráfico,2025-11-30 10:00:00,Razonablemente Buena,A07_VALENCIACENTRE_60m,39.4705476702601,-0.376397651655324,2025-11-30 11:03:33.071611
410,12,Dr. Lluch,DR.LLUCH,Urbana,,33,,,24,13,Tráfico,2025-11-30 10:00:00,Razonablemente Buena,A08_DR_LLUCH_60m,39.4666847554611,-0.328289489402739,2025-11-30 11:03:33.071611
411,22,Patraix,PATRAIX,Urbana,,42,,,35,13,Tráfico,2025-11-30 10:00:00,Razonablemente Buena,A11_PATRAIX_60m,39.4591890899964,-0.401411329219129,2025-11-30 11:03:33.071611
412,13,Francia,AVDA.FRANCIA,Urbana,2,20,42,0,18,10,Tráfico,2025-11-30 10:00:00,Buena,A01_AVFRANCIA_60m,39.4578268875183,-0.342986232422652,2025-11-30 11:03:33.071611
413,14,Boulevar Sur,BULEVARD SUD,Urbana,4,23,53,,,,Tráfico,2025-11-30 10:00:00,Razonablemente Buena,A02_BULEVARDSUD_60m,39.4503960055054,-0.396337564375856,2025-11-30 11:03:33.071611
414,21,Olivereta,OLIVERETA,Urbana,,70,,,27,17,Tráfico,2025-11-30 10:00:00,Razonablemente Buena,A10_OLIVERETA_60m,39.4692442350919,-0.405923445529068,2025-11-30 11:03:33.071611
415,15,Molí del Sol,MOLÍ DEL SOL,Suburbana,2,0,39,0,20,12,Tráfico,2025-11-30 10:00:00,Razonablemente Buena,A03_MOLISOL_60m,39.4811121109041,-0.408809896900938,2025-11-30 11:03:33.071611
416,16,Pista de Silla,PISTA DE SILLA,Urbana,2,26,52,0,22,13,Tráfico,2025-11-30 10:00:00,Razonablemente Buena,A04_PISTASILLA_60m,39.4580609536967,-0.376643936579157,2025-11-30 11:03:33.071611
417,20,Cabanyal,CABANYAL,Urbana,,25,,,18,13,Fondo,2025-11-30 10:00:00,Razonablemente Buena,A09_CABANYAL_60m,39.4743907853568,-0.328534813492744,2025-11-30 11:03:33.071611
418,18,Viveros,VIVERS,Urbana,0,16,38,,,,Fondo,2025-11-30 10:00:00,Buena,A06_VIVERS_60m,39.4796409248053,-0.36964822314381,2025-11-30 11:03:33.071611
419,17,Universidad Politécnica,POLITÈCNIC,Suburbana,2,11,43,,15,11,Fondo,2025-11-30 10:00:00,Razonablemente Buena,A05_POLITECNIC_60m,39.4796444969291,-0.337400660521869,2025-11-30 11:18:33.415017
420,19,Centro,VALÈNCIA CENTRE,Urbana,,24,,,24,13,Tráfico,2025-11-30 10:00:00,Razonablemente Buena,A07_VALENCIACENTRE_60m,39.4705476702601,-0.376397651655324,2025-11-30 11:18:33.415017
421,12,Dr. Lluch,DR.LLUCH,Urbana,,33,,,24,13,Tráfico,2025-11-30 10:00:00,Razonablemente Buena,A08_DR_LLUCH_60m,39.4666847554611,-0.328289489402739,2025-11-30 11:18:33.415017
422,22,Patraix,PATRAIX,Urbana,,42,,,35,13,Tráfico,2025-11-30 10:00:00,Razonablemente Buena,A11_PATRAIX_60m,39.4591890899964,-0.401411329219129,2025-11-30 11:18:33.415017
423,13,Francia,AVDA.FRANCIA,Urbana,2,20,42,0,18,10,Tráfico,2025-11-30 10:00:00,Buena,A01_AVFRANCIA_60m,39.4578268875183,-0.342986232422652,2025-11-30 11:18:33.415017
424,14,Boulevar Sur,BULEVARD SUD,Urbana,4,23,53,,,,Tráfico,2025-11-30 10:00:00,Razonablemente Buena,A02_BULEVARDSUD_60m,39.4503960055054,-0.396337564375856,2025-11-30 11:18:33.415017
425,21,Olivereta,OLIVERETA,Urbana,,70,,,27,17,Tráfico,2025-11-30 10:00:00,Razonablemente Buena,A10_OLIVERETA_60m,39.4692442350919,-0.405923445529068,2025-11-30 11:18:33.415017
426,15,Molí del Sol,MOLÍ DEL SOL,Suburbana,2,0,39,0,20,12,Tráfico,2025-11-30 10:00:00,Razonablemente Buena,A03_MOLISOL_60m,39.4811121109041,-0.408809896900938,2025-11-30 11:18:33.415017
427,16,Pista de Silla,PISTA DE SILLA,Urbana,2,26,52,0,22,13,Tráfico,2025-11-30 10:00:00,Razonablemente Buena,A04_PISTASILLA_60m,39.4580609536967,-0.376643936579157,2025-11-30 11:18:33.415017
428,20,Cabanyal,CABANYAL,Urbana,,25,,,18,13,Fondo,2025-11-30 10:00:00,Razonablemente Buena,A09_CABANYAL_60m,39.4743907853568,-0.328534813492744,2025-11-30 11:18:33.415017
429,18,Viveros,VIVERS,Urbana,0,16,38,,,,Fondo,2025-11-30 10:00:00,Buena,A06_VIVERS_60m,39.4796409248053,-0.36964822314381,2025-11-30 11:18:33.415017
430,14,Boulevar Sur,BULEVARD SUD,Urbana,5,26,51,,,,Tráfico,2025-11-30 11:00:00,Razonablemente Buena,A02_BULEVARDSUD_60m,39.4503960055054,-0.396337564375856,2025-11-30 11:33:33.782433
431,15,Molí del Sol,MOLÍ DEL SOL,Suburbana,3,0,39,0,19,12,Tráfico,2025-11-30 11:00:00,Razonablemente Buena,A03_MOLISOL_60m,39.4811121109041,-0.408809896900938,2025-11-30 11:33:33.782433
432,20,Cabanyal,CABANYAL,Urbana,,20,,,18,13,Fondo,2025-11-30 11:00:00,Razonablemente Buena,A09_CABANYAL_60m,39.4743907853568,-0.328534813492744,2025-11-30 11:33:33.782433
433,17,Universidad Politécnica,POLITÈCNIC,Suburbana,3,10,42,,15,11,Fondo,2025-11-30 11:00:00,Razonablemente Buena,A05_POLITECNIC_60m,39.4796444969291,-0.337400660521869,2025-11-30 11:33:33.782433
434,18,Viveros,VIVERS,Urbana,0,11,38,,,,Fondo,2025-11-30 11:00:00,Buena,A06_VIVERS_60m,39.4796409248053,-0.36964822314381,2025-11-30 11:33:33.782433
435,19,Centro,VALÈNCIA CENTRE,Urbana,,20,,,23,13,Tráfico,2025-11-30 11:00:00,Razonablemente Buena,A07_VALENCIACENTRE_60m,39.4705476702601,-0.376397651655324,2025-11-30 11:33:33.782433
436,12,Dr. Lluch,DR.LLUCH,Urbana,,25,,,24,13,Tráfico,2025-11-30 11:00:00,Razonablemente Buena,A08_DR_LLUCH_60m,39.4666847554611,-0.328289489402739,2025-11-30 11:33:33.782433
437,16,Pista de Silla,PISTA DE SILLA,Urbana,2,20,50,0,22,13,Tráfico,2025-11-30 11:00:00,Razonablemente Buena,A04_PISTASILLA_60m,39.4580609536967,-0.376643936579157,2025-11-30 11:33:33.782433
438,21,Olivereta,OLIVERETA,Urbana,,70,,,27,17,Tráfico,2025-11-30 11:00:00,Razonablemente Buena,A10_OLIVERETA_60m,39.4692442350919,-0.405923445529068,2025-11-30 11:33:33.782433
439,13,Francia,AVDA.FRANCIA,Urbana,2,17,41,0,18,10,Tráfico,2025-11-30 11:00:00,Buena,A01_AVFRANCIA_60m,39.4578268875183,-0.342986232422652,2025-11-30 11:33:33.782433
440,22,Patraix,PATRAIX,Urbana,,40,,,35,13,Tráfico,2025-11-30 11:00:00,Razonablemente Buena,A11_PATRAIX_60m,39.4591890899964,-0.401411329219129,2025-11-30 11:33:33.782433
441,14,Boulevar Sur,BULEVARD SUD,Urbana,5,26,51,,,,Tráfico,2025-11-30 11:00:00,Razonablemente Buena,A02_BULEVARDSUD_60m,39.4503960055054,-0.396337564375856,2025-11-30 11:48:34.036265
442,15,Molí del Sol,MOLÍ DEL SOL,Suburbana,3,0,39,0,19,12,Tráfico,2025-11-30 11:00:00,Razonablemente Buena,A03_MOLISOL_60m,39.4811121109041,-0.408809896900938,2025-11-30 11:48:34.036265
443,20,Cabanyal,CABANYAL,Urbana,,20,,,18,13,Fondo,2025-11-30 11:00:00,Razonablemente Buena,A09_CABANYAL_60m,39.4743907853568,-0.328534813492744,2025-11-30 11:48:34.036265
444,17,Universidad Politécnica,POLITÈCNIC,Suburbana,3,10,42,,15,11,Fondo,2025-11-30 11:00:00,Razonablemente Buena,A05_POLITECNIC_60m,39.4796444969291,-0.337400660521869,2025-11-30 11:48:34.036265
445,18,Viveros,VIVERS,Urbana,0,11,38,,,,Fondo,2025-11-30 11:00:00,Buena,A06_VIVERS_60m,39.4796409248053,-0.36964822314381,2025-11-30 11:48:34.036265
446,19,Centro,VALÈNCIA CENTRE,Urbana,,20,,,23,13,Tráfico,2025-11-30 11:00:00,Razonablemente Buena,A07_VALENCIACENTRE_60m,39.4705476702601,-0.376397651655324,2025-11-30 11:48:34.036265
447,12,Dr. Lluch,DR.LLUCH,Urbana,,25,,,24,13,Tráfico,2025-11-30 11:00:00,Razonablemente Buena,A08_DR_LLUCH_60m,39.4666847554611,-0.328289489402739,2025-11-30 11:48:34.036265
448,16,Pista de Silla,PISTA DE SILLA,Urbana,2,20,50,0,22,13,Tráfico,2025-11-30 11:00:00,Razonablemente Buena,A04_PISTASILLA_60m,39.4580609536967,-0.376643936579157,2025-11-30 11:48:34.036265
449,21,Olivereta,OLIVERETA,Urbana,,70,,,27,17,Tráfico,2025-11-30 11:00:00,Razonablemente Buena,A10_OLIVERETA_60m,39.4692442350919,-0.405923445529068,2025-11-30 11:48:34.036265
450,13,Francia,AVDA.FRANCIA,Urbana,2,17,41,0,18,10,Tráfico,2025-11-30 11:00:00,Buena,A01_AVFRANCIA_60m,39.4578268875183,-0.342986232422652,2025-11-30 11:48:34.036265
451,22,Patraix,PATRAIX,Urbana,,40,,,35,13,Tráfico,2025-11-30 11:00:00,Razonablemente Buena,A11_PATRAIX_60m,39.4591890899964,-0.401411329219129,2025-11-30 11:48:34.036265
452,14,Boulevar Sur,BULEVARD SUD,Urbana,5,26,51,,,,Tráfico,2025-11-30 11:00:00,Razonablemente Buena,A02_BULEVARDSUD_60m,39.4503960055054,-0.396337564375856,2025-11-30 12:03:34.432081
453,15,Molí del Sol,MOLÍ DEL SOL,Suburbana,3,0,39,0,19,12,Tráfico,2025-11-30 11:00:00,Razonablemente Buena,A03_MOLISOL_60m,39.4811121109041,-0.408809896900938,2025-11-30 12:03:34.432081
454,20,Cabanyal,CABANYAL,Urbana,,20,,,18,13,Fondo,2025-11-30 11:00:00,Razonablemente Buena,A09_CABANYAL_60m,39.4743907853568,-0.328534813492744,2025-11-30 12:03:34.432081
455,17,Universidad Politécnica,POLITÈCNIC,Suburbana,3,10,42,,15,11,Fondo,2025-11-30 11:00:00,Razonablemente Buena,A05_POLITECNIC_60m,39.4796444969291,-0.337400660521869,2025-11-30 12:03:34.432081
456,18,Viveros,VIVERS,Urbana,0,11,38,,,,Fondo,2025-11-30 11:00:00,Buena,A06_VIVERS_60m,39.4796409248053,-0.36964822314381,2025-11-30 12:03:34.432081
457,19,Centro,VALÈNCIA CENTRE,Urbana,,20,,,23,13,Tráfico,2025-11-30 11:00:00,Razonablemente Buena,A07_VALENCIACENTRE_60m,39.4705476702601,-0.376397651655324,2025-11-30 12:03:34.432081
458,12,Dr. Lluch,DR.LLUCH,Urbana,,25,,,24,13,Tráfico,2025-11-30 11:00:00,Razonablemente Buena,A08_DR_LLUCH_60m,39.4666847554611,-0.328289489402739,2025-11-30 12:03:34.432081
459,16,Pista de Silla,PISTA DE SILLA,Urbana,2,20,50,0,22,13,Tráfico,2025-11-30 11:00:00,Razonablemente Buena,A04_PISTASILLA_60m,39.4580609536967,-0.376643936579157,2025-11-30 12:03:34.432081
460,21,Olivereta,OLIVERETA,Urbana,,70,,,27,17,Tráfico,2025-11-30 11:00:00,Razonablemente Buena,A10_OLIVERETA_60m,39.4692442350919,-0.405923445529068,2025-11-30 12:03:34.432081
461,13,Francia,AVDA.FRANCIA,Urbana,2,17,41,0,18,10,Tráfico,2025-11-30 11:00:00,Buena,A01_AVFRANCIA_60m,39.4578268875183,-0.342986232422652,2025-11-30 12:03:34.432081
462,22,Patraix,PATRAIX,Urbana,,40,,,35,13,Tráfico,2025-11-30 11:00:00,Razonablemente Buena,A11_PATRAIX_60m,39.4591890899964,-0.401411329219129,2025-11-30 12:03:34.432081
463,21,Olivereta,OLIVERETA,Urbana,,22,,,25,15,Tráfico,2025-11-30 16:00:00,Razonablemente Buena,A10_OLIVERETA_60m,39.4692442350919,-0.405923445529068,2025-11-30 16:52:42.405056
464,15,Molí del Sol,MOLÍ DEL SOL,Suburbana,2,0,47,0,18,11,Tráfico,2025-11-30 16:00:00,Razonablemente Buena,A03_MOLISOL_60m,39.4811121109041,-0.408809896900938,2025-11-30 16:52:42.405056
465,16,Pista de Silla,PISTA DE SILLA,Urbana,2,10,56,0,19,12,Tráfico,2025-11-30 16:00:00,Razonablemente Buena,A04_PISTASILLA_60m,39.4580609536967,-0.376643936579157,2025-11-30 16:52:42.405056
466,12,Dr. Lluch,DR.LLUCH,Urbana,,8,,,24,12,Tráfico,2025-11-30 16:00:00,Razonablemente Buena,A08_DR_LLUCH_60m,39.4666847554611,-0.328289489402739,2025-11-30 16:52:42.405056
467,22,Patraix,PATRAIX,Urbana,,11,,,23,12,Tráfico,2025-11-30 16:00:00,Razonablemente Buena,A11_PATRAIX_60m,39.4591890899964,-0.401411329219129,2025-11-30 16:52:42.405056
468,18,Viveros,VIVERS,Urbana,0,2,46,,,,Fondo,2025-11-30 16:00:00,Buena,A06_VIVERS_60m,39.4796409248053,-0.36964822314381,2025-11-30 16:52:42.405056
469,13,Francia,AVDA.FRANCIA,Urbana,2,5,51,0,16,9,Tráfico,2025-11-30 16:00:00,Razonablemente Buena,A01_AVFRANCIA_60m,39.4578268875183,-0.342986232422652,2025-11-30 16:52:42.405056
470,14,Boulevar Sur,BULEVARD SUD,Urbana,3,8,52,,,,Tráfico,2025-11-30 16:00:00,Razonablemente Buena,A02_BULEVARDSUD_60m,39.4503960055054,-0.396337564375856,2025-11-30 16:52:42.405056
471,19,Centro,VALÈNCIA CENTRE,Urbana,,9,,,22,11,Tráfico,2025-11-30 16:00:00,Razonablemente Buena,A07_VALENCIACENTRE_60m,39.4705476702601,-0.376397651655324,2025-11-30 16:52:42.405056
472,17,Universidad Politécnica,POLITÈCNIC,Suburbana,1,5,50,,13,10,Fondo,2025-11-30 16:00:00,Buena,A05_POLITECNIC_60m,39.4796444969291,-0.337400660521869,2025-11-30 16:52:42.405056
473,20,Cabanyal,CABANYAL,Urbana,,6,,,16,11,Fondo,2025-11-30 16:00:00,Razonablemente Buena,A09_CABANYAL_60m,39.4743907853568,-0.328534813492744,2025-11-30 16:52:42.405056
474,19,Centro,VALÈNCIA CENTRE,Urbana,,34,,,17,7,Tráfico,2025-12-01 11:00:00,Buena,A07_VALENCIACENTRE_60m,39.4705476702601,-0.376397651655324,2025-12-01 11:57:57.287123
475,21,Olivereta,OLIVERETA,Urbana,,50,,,14,7,Tráfico,2025-12-01 11:00:00,Buena,A10_OLIVERETA_60m,39.4692442350919,-0.405923445529068,2025-12-01 11:57:57.287123
476,15,Molí del Sol,MOLÍ DEL SOL,Suburbana,1,0,25,0,9,5,Tráfico,2025-12-01 11:00:00,Buena,A03_MOLISOL_60m,39.4811121109041,-0.408809896900938,2025-12-01 11:57:57.287123
477,16,Pista de Silla,PISTA DE SILLA,Urbana,2,35,33,0,12,6,Tráfico,2025-12-01 11:00:00,Buena,A04_PISTASILLA_60m,39.4580609536967,-0.376643936579157,2025-12-01 11:57:57.287123
478,18,Viveros,VIVERS,Urbana,0,28,20,,,,Fondo,2025-12-01 11:00:00,Buena,A06_VIVERS_60m,39.4796409248053,-0.36964822314381,2025-12-01 11:57:57.287123
479,22,Patraix,PATRAIX,Urbana,,55,,,18,8,Tráfico,2025-12-01 11:00:00,Razonablemente Buena,A11_PATRAIX_60m,39.4591890899964,-0.401411329219129,2025-12-01 11:57:57.287123
480,20,Cabanyal,CABANYAL,Urbana,,39,,,15,5,Fondo,2025-12-01 11:00:00,Buena,A09_CABANYAL_60m,39.4743907853568,-0.328534813492744,2025-12-01 11:57:57.287123
481,17,Universidad Politécnica,POLITÈCNIC,Suburbana,2,16,28,,9,5,Fondo,2025-12-01 11:00:00,Buena,A05_POLITECNIC_60m,39.4796444969291,-0.337400660521869,2025-12-01 11:57:57.287123
482,13,Francia,AVDA.FRANCIA,Urbana,2,33,23,0,12,5,Tráfico,2025-12-01 11:00:00,Buena,A01_AVFRANCIA_60m,39.4578268875183,-0.342986232422652,2025-12-01 11:57:57.287123
483,14,Boulevar Sur,BULEVARD SUD,Urbana,5,35,20,,,,Tráfico,2025-12-01 11:00:00,Buena,A02_BULEVARDSUD_60m,39.4503960055054,-0.396337564375856,2025-12-01 11:57:57.287123
484,12,Dr. Lluch,DR.LLUCH,Urbana,,54,,,25,7,Tráfico,2025-12-01 11:00:00,Razonablemente Buena,A08_DR_LLUCH_60m,39.4666847554611,-0.328289489402739,2025-12-01 11:57:57.287123
485,19,Centro,VALÈNCIA CENTRE,Urbana,,34,,,17,7,Tráfico,2025-12-01 11:00:00,Buena,A07_VALENCIACENTRE_60m,39.4705476702601,-0.376397651655324,2025-12-01 12:03:54.193646
486,21,Olivereta,OLIVERETA,Urbana,,50,,,14,7,Tráfico,2025-12-01 11:00:00,Buena,A10_OLIVERETA_60m,39.4692442350919,-0.405923445529068,2025-12-01 12:03:54.193646
487,15,Molí del Sol,MOLÍ DEL SOL,Suburbana,1,0,25,0,9,5,Tráfico,2025-12-01 11:00:00,Buena,A03_MOLISOL_60m,39.4811121109041,-0.408809896900938,2025-12-01 12:03:54.193646
488,16,Pista de Silla,PISTA DE SILLA,Urbana,2,35,33,0,12,6,Tráfico,2025-12-01 11:00:00,Buena,A04_PISTASILLA_60m,39.4580609536967,-0.376643936579157,2025-12-01 12:03:54.193646
489,18,Viveros,VIVERS,Urbana,0,28,20,,,,Fondo,2025-12-01 11:00:00,Buena,A06_VIVERS_60m,39.4796409248053,-0.36964822314381,2025-12-01 12:03:54.193646
490,22,Patraix,PATRAIX,Urbana,,55,,,18,8,Tráfico,2025-12-01 11:00:00,Razonablemente Buena,A11_PATRAIX_60m,39.4591890899964,-0.401411329219129,2025-12-01 12:03:54.193646
491,20,Cabanyal,CABANYAL,Urbana,,39,,,15,5,Fondo,2025-12-01 11:00:00,Buena,A09_CABANYAL_60m,39.4743907853568,-0.328534813492744,2025-12-01 12:03:54.193646
492,17,Universidad Politécnica,POLITÈCNIC,Suburbana,2,16,28,,9,5,Fondo,2025-12-01 11:00:00,Buena,A05_POLITECNIC_60m,39.4796444969291,-0.337400660521869,2025-12-01 12:03:54.193646
493,13,Francia,AVDA.FRANCIA,Urbana,2,33,23,0,12,5,Tráfico,2025-12-01 11:00:00,Buena,A01_AVFRANCIA_60m,39.4578268875183,-0.342986232422652,2025-12-01 12:03:54.193646
494,14,Boulevar Sur,BULEVARD SUD,Urbana,5,35,20,,,,Tráfico,2025-12-01 11:00:00,Buena,A02_BULEVARDSUD_60m,39.4503960055054,-0.396337564375856,2025-12-01 12:03:54.193646
495,12,Dr. Lluch,DR.LLUCH,Urbana,,54,,,25,7,Tráfico,2025-12-01 11:00:00,Razonablemente Buena,A08_DR_LLUCH_60m,39.4666847554611,-0.328289489402739,2025-12-01 12:03:54.193646
496,19,Centro,VALÈNCIA CENTRE,Urbana,,34,,,17,7,Tráfico,2025-12-01 11:00:00,Buena,A07_VALENCIACENTRE_60m,39.4705476702601,-0.376397651655324,2025-12-01 12:12:57.585838
497,21,Olivereta,OLIVERETA,Urbana,,50,,,14,7,Tráfico,2025-12-01 11:00:00,Buena,A10_OLIVERETA_60m,39.4692442350919,-0.405923445529068,2025-12-01 12:12:57.585838
498,15,Molí del Sol,MOLÍ DEL SOL,Suburbana,1,0,25,0,9,5,Tráfico,2025-12-01 11:00:00,Buena,A03_MOLISOL_60m,39.4811121109041,-0.408809896900938,2025-12-01 12:12:57.585838
499,16,Pista de Silla,PISTA DE SILLA,Urbana,2,35,33,0,12,6,Tráfico,2025-12-01 11:00:00,Buena,A04_PISTASILLA_60m,39.4580609536967,-0.376643936579157,2025-12-01 12:12:57.585838
500,18,Viveros,VIVERS,Urbana,0,28,20,,,,Fondo,2025-12-01 11:00:00,Buena,A06_VIVERS_60m,39.4796409248053,-0.36964822314381,2025-12-01 12:12:57.585838
501,22,Patraix,PATRAIX,Urbana,,55,,,18,8,Tráfico,2025-12-01 11:00:00,Razonablemente Buena,A11_PATRAIX_60m,39.4591890899964,-0.401411329219129,2025-12-01 12:12:57.585838
502,20,Cabanyal,CABANYAL,Urbana,,39,,,15,5,Fondo,2025-12-01 11:00:00,Buena,A09_CABANYAL_60m,39.4743907853568,-0.328534813492744,2025-12-01 12:12:57.585838
503,17,Universidad Politécnica,POLITÈCNIC,Suburbana,2,16,28,,9,5,Fondo,2025-12-01 11:00:00,Buena,A05_POLITECNIC_60m,39.4796444969291,-0.337400660521869,2025-12-01 12:12:57.585838
504,13,Francia,AVDA.FRANCIA,Urbana,2,33,23,0,12,5,Tráfico,2025-12-01 11:00:00,Buena,A01_AVFRANCIA_60m,39.4578268875183,-0.342986232422652,2025-12-01 12:12:57.585838
505,14,Boulevar Sur,BULEVARD SUD,Urbana,5,35,20,,,,Tráfico,2025-12-01 11:00:00,Buena,A02_BULEVARDSUD_60m,39.4503960055054,-0.396337564375856,2025-12-01 12:12:57.585838
506,12,Dr. Lluch,DR.LLUCH,Urbana,,54,,,25,7,Tráfico,2025-12-01 11:00:00,Razonablemente Buena,A08_DR_LLUCH_60m,39.4666847554611,-0.328289489402739,2025-12-01 12:12:57.585838
507,19,Centro,VALÈNCIA CENTRE,Urbana,,34,,,17,7,Tráfico,2025-12-01 11:00:00,Buena,A07_VALENCIACENTRE_60m,39.4705476702601,-0.376397651655324,2025-12-01 12:18:57.781915
508,21,Olivereta,OLIVERETA,Urbana,,50,,,14,7,Tráfico,2025-12-01 11:00:00,Buena,A10_OLIVERETA_60m,39.4692442350919,-0.405923445529068,2025-12-01 12:18:57.781915
509,15,Molí del Sol,MOLÍ DEL SOL,Suburbana,1,0,25,0,9,5,Tráfico,2025-12-01 11:00:00,Buena,A03_MOLISOL_60m,39.4811121109041,-0.408809896900938,2025-12-01 12:18:57.781915
510,16,Pista de Silla,PISTA DE SILLA,Urbana,2,35,33,0,12,6,Tráfico,2025-12-01 11:00:00,Buena,A04_PISTASILLA_60m,39.4580609536967,-0.376643936579157,2025-12-01 12:18:57.781915
511,18,Viveros,VIVERS,Urbana,0,28,20,,,,Fondo,2025-12-01 11:00:00,Buena,A06_VIVERS_60m,39.4796409248053,-0.36964822314381,2025-12-01 12:18:57.781915
512,22,Patraix,PATRAIX,Urbana,,55,,,18,8,Tráfico,2025-12-01 11:00:00,Razonablemente Buena,A11_PATRAIX_60m,39.4591890899964,-0.401411329219129,2025-12-01 12:18:57.781915
513,20,Cabanyal,CABANYAL,Urbana,,39,,,15,5,Fondo,2025-12-01 11:00:00,Buena,A09_CABANYAL_60m,39.4743907853568,-0.328534813492744,2025-12-01 12:18:57.781915
514,17,Universidad Politécnica,POLITÈCNIC,Suburbana,2,16,28,,9,5,Fondo,2025-12-01 11:00:00,Buena,A05_POLITECNIC_60m,39.4796444969291,-0.337400660521869,2025-12-01 12:18:57.781915
515,13,Francia,AVDA.FRANCIA,Urbana,2,33,23,0,12,5,Tráfico,2025-12-01 11:00:00,Buena,A01_AVFRANCIA_60m,39.4578268875183,-0.342986232422652,2025-12-01 12:18:57.781915
516,14,Boulevar Sur,BULEVARD SUD,Urbana,5,35,20,,,,Tráfico,2025-12-01 11:00:00,Buena,A02_BULEVARDSUD_60m,39.4503960055054,-0.396337564375856,2025-12-01 12:18:57.781915
517,12,Dr. Lluch,DR.LLUCH,Urbana,,54,,,25,7,Tráfico,2025-12-01 11:00:00,Razonablemente Buena,A08_DR_LLUCH_60m,39.4666847554611,-0.328289489402739,2025-12-01 12:18:57.781915
518,12,Dr. Lluch,DR.LLUCH,Urbana,,50,,,26,7,Tráfico,2025-12-01 12:00:00,Razonablemente Buena,A08_DR_LLUCH_60m,39.4666847554611,-0.328289489402739,2025-12-01 12:27:57.986017
519,21,Olivereta,OLIVERETA,Urbana,,50,,,15,7,Tráfico,2025-12-01 12:00:00,Buena,A10_OLIVERETA_60m,39.4692442350919,-0.405923445529068,2025-12-01 12:27:57.986017
520,17,Universidad Politécnica,POLITÈCNIC,Suburbana,3,15,26,,9,5,Fondo,2025-12-01 12:00:00,Buena,A05_POLITECNIC_60m,39.4796444969291,-0.337400660521869,2025-12-01 12:27:57.986017
521,14,Boulevar Sur,BULEVARD SUD,Urbana,4,32,20,,,,Tráfico,2025-12-01 12:00:00,Buena,A02_BULEVARDSUD_60m,39.4503960055054,-0.396337564375856,2025-12-01 12:27:57.986017
522,22,Patraix,PATRAIX,Urbana,,56,,,18,8,Tráfico,2025-12-01 12:00:00,Razonablemente Buena,A11_PATRAIX_60m,39.4591890899964,-0.401411329219129,2025-12-01 12:27:57.986017
523,19,Centro,VALÈNCIA CENTRE,Urbana,,32,,,17,7,Tráfico,2025-12-01 12:00:00,Buena,A07_VALENCIACENTRE_60m,39.4705476702601,-0.376397651655324,2025-12-01 12:27:57.986017
524,13,Francia,AVDA.FRANCIA,Urbana,2,28,19,0,14,5,Tráfico,2025-12-01 12:00:00,Buena,A01_AVFRANCIA_60m,39.4578268875183,-0.342986232422652,2025-12-01 12:27:57.986017
525,15,Molí del Sol,MOLÍ DEL SOL,Suburbana,0,0,27,0,9,5,Tráfico,2025-12-01 12:00:00,Buena,A03_MOLISOL_60m,39.4811121109041,-0.408809896900938,2025-12-01 12:27:57.986017
526,16,Pista de Silla,PISTA DE SILLA,Urbana,2,33,33,0,12,6,Tráfico,2025-12-01 12:00:00,Buena,A04_PISTASILLA_60m,39.4580609536967,-0.376643936579157,2025-12-01 12:27:57.986017
527,20,Cabanyal,CABANYAL,Urbana,,36,,,16,6,Fondo,2025-12-01 12:00:00,Buena,A09_CABANYAL_60m,39.4743907853568,-0.328534813492744,2025-12-01 12:27:57.986017
528,18,Viveros,VIVERS,Urbana,0,23,19,,,,Fondo,2025-12-01 12:00:00,Buena,A06_VIVERS_60m,39.4796409248053,-0.36964822314381,2025-12-01 12:27:57.986017
529,12,Dr. Lluch,DR.LLUCH,Urbana,,50,,,26,7,Tráfico,2025-12-01 12:00:00,Razonablemente Buena,A08_DR_LLUCH_60m,39.4666847554611,-0.328289489402739,2025-12-01 12:33:58.368942
530,21,Olivereta,OLIVERETA,Urbana,,50,,,15,7,Tráfico,2025-12-01 12:00:00,Buena,A10_OLIVERETA_60m,39.4692442350919,-0.405923445529068,2025-12-01 12:33:58.368942
531,17,Universidad Politécnica,POLITÈCNIC,Suburbana,3,15,26,,9,5,Fondo,2025-12-01 12:00:00,Buena,A05_POLITECNIC_60m,39.4796444969291,-0.337400660521869,2025-12-01 12:33:58.368942
532,14,Boulevar Sur,BULEVARD SUD,Urbana,4,32,20,,,,Tráfico,2025-12-01 12:00:00,Buena,A02_BULEVARDSUD_60m,39.4503960055054,-0.396337564375856,2025-12-01 12:33:58.368942
533,22,Patraix,PATRAIX,Urbana,,56,,,18,8,Tráfico,2025-12-01 12:00:00,Razonablemente Buena,A11_PATRAIX_60m,39.4591890899964,-0.401411329219129,2025-12-01 12:33:58.368942
534,19,Centro,VALÈNCIA CENTRE,Urbana,,32,,,17,7,Tráfico,2025-12-01 12:00:00,Buena,A07_VALENCIACENTRE_60m,39.4705476702601,-0.376397651655324,2025-12-01 12:33:58.368942
535,13,Francia,AVDA.FRANCIA,Urbana,2,28,19,0,14,5,Tráfico,2025-12-01 12:00:00,Buena,A01_AVFRANCIA_60m,39.4578268875183,-0.342986232422652,2025-12-01 12:33:58.368942
536,15,Molí del Sol,MOLÍ DEL SOL,Suburbana,0,0,27,0,9,5,Tráfico,2025-12-01 12:00:00,Buena,A03_MOLISOL_60m,39.4811121109041,-0.408809896900938,2025-12-01 12:33:58.368942
537,16,Pista de Silla,PISTA DE SILLA,Urbana,2,33,33,0,12,6,Tráfico,2025-12-01 12:00:00,Buena,A04_PISTASILLA_60m,39.4580609536967,-0.376643936579157,2025-12-01 12:33:58.368942
538,20,Cabanyal,CABANYAL,Urbana,,36,,,16,6,Fondo,2025-12-01 12:00:00,Buena,A09_CABANYAL_60m,39.4743907853568,-0.328534813492744,2025-12-01 12:33:58.368942
539,18,Viveros,VIVERS,Urbana,0,23,19,,,,Fondo,2025-12-01 12:00:00,Buena,A06_VIVERS_60m,39.4796409248053,-0.36964822314381,2025-12-01 12:33:58.368942
562,12,Dr. Lluch,DR.LLUCH,Urbana,,50,,,26,7,Tráfico,2025-12-01 12:00:00,Razonablemente Buena,A08_DR_LLUCH_60m,39.4666847554611,-0.328289489402739,2025-12-01 13:15:26.057993
563,21,Olivereta,OLIVERETA,Urbana,,50,,,15,7,Tráfico,2025-12-01 12:00:00,Buena,A10_OLIVERETA_60m,39.4692442350919,-0.405923445529068,2025-12-01 13:15:26.057993
564,17,Universidad Politécnica,POLITÈCNIC,Suburbana,3,15,26,,9,5,Fondo,2025-12-01 12:00:00,Buena,A05_POLITECNIC_60m,39.4796444969291,-0.337400660521869,2025-12-01 13:15:26.057993
565,14,Boulevar Sur,BULEVARD SUD,Urbana,4,32,20,,,,Tráfico,2025-12-01 12:00:00,Buena,A02_BULEVARDSUD_60m,39.4503960055054,-0.396337564375856,2025-12-01 13:15:26.057993
566,22,Patraix,PATRAIX,Urbana,,56,,,18,8,Tráfico,2025-12-01 12:00:00,Razonablemente Buena,A11_PATRAIX_60m,39.4591890899964,-0.401411329219129,2025-12-01 13:15:26.057993
567,19,Centro,VALÈNCIA CENTRE,Urbana,,32,,,17,7,Tráfico,2025-12-01 12:00:00,Buena,A07_VALENCIACENTRE_60m,39.4705476702601,-0.376397651655324,2025-12-01 13:15:26.057993
568,13,Francia,AVDA.FRANCIA,Urbana,2,28,19,0,14,5,Tráfico,2025-12-01 12:00:00,Buena,A01_AVFRANCIA_60m,39.4578268875183,-0.342986232422652,2025-12-01 13:15:26.057993
569,15,Molí del Sol,MOLÍ DEL SOL,Suburbana,0,0,27,0,9,5,Tráfico,2025-12-01 12:00:00,Buena,A03_MOLISOL_60m,39.4811121109041,-0.408809896900938,2025-12-01 13:15:26.057993
570,16,Pista de Silla,PISTA DE SILLA,Urbana,2,33,33,0,12,6,Tráfico,2025-12-01 12:00:00,Buena,A04_PISTASILLA_60m,39.4580609536967,-0.376643936579157,2025-12-01 13:15:26.057993
571,20,Cabanyal,CABANYAL,Urbana,,36,,,16,6,Fondo,2025-12-01 12:00:00,Buena,A09_CABANYAL_60m,39.4743907853568,-0.328534813492744,2025-12-01 13:15:26.057993
572,18,Viveros,VIVERS,Urbana,0,23,19,,,,Fondo,2025-12-01 12:00:00,Buena,A06_VIVERS_60m,39.4796409248053,-0.36964822314381,2025-12-01 13:15:26.057993
573,12,Dr. Lluch,DR.LLUCH,Urbana,,50,,,26,7,Tráfico,2025-12-01 12:00:00,Razonablemente Buena,A08_DR_LLUCH_60m,39.4666847554611,-0.328289489402739,2025-12-01 13:18:56.149983
574,21,Olivereta,OLIVERETA,Urbana,,50,,,15,7,Tráfico,2025-12-01 12:00:00,Buena,A10_OLIVERETA_60m,39.4692442350919,-0.405923445529068,2025-12-01 13:18:56.149983
575,17,Universidad Politécnica,POLITÈCNIC,Suburbana,3,15,26,,9,5,Fondo,2025-12-01 12:00:00,Buena,A05_POLITECNIC_60m,39.4796444969291,-0.337400660521869,2025-12-01 13:18:56.149983
576,14,Boulevar Sur,BULEVARD SUD,Urbana,4,32,20,,,,Tráfico,2025-12-01 12:00:00,Buena,A02_BULEVARDSUD_60m,39.4503960055054,-0.396337564375856,2025-12-01 13:18:56.149983
577,22,Patraix,PATRAIX,Urbana,,56,,,18,8,Tráfico,2025-12-01 12:00:00,Razonablemente Buena,A11_PATRAIX_60m,39.4591890899964,-0.401411329219129,2025-12-01 13:18:56.149983
578,19,Centro,VALÈNCIA CENTRE,Urbana,,32,,,17,7,Tráfico,2025-12-01 12:00:00,Buena,A07_VALENCIACENTRE_60m,39.4705476702601,-0.376397651655324,2025-12-01 13:18:56.149983
579,13,Francia,AVDA.FRANCIA,Urbana,2,28,19,0,14,5,Tráfico,2025-12-01 12:00:00,Buena,A01_AVFRANCIA_60m,39.4578268875183,-0.342986232422652,2025-12-01 13:18:56.149983
580,15,Molí del Sol,MOLÍ DEL SOL,Suburbana,0,0,27,0,9,5,Tráfico,2025-12-01 12:00:00,Buena,A03_MOLISOL_60m,39.4811121109041,-0.408809896900938,2025-12-01 13:18:56.149983
581,16,Pista de Silla,PISTA DE SILLA,Urbana,2,33,33,0,12,6,Tráfico,2025-12-01 12:00:00,Buena,A04_PISTASILLA_60m,39.4580609536967,-0.376643936579157,2025-12-01 13:18:56.149983
582,20,Cabanyal,CABANYAL,Urbana,,36,,,16,6,Fondo,2025-12-01 12:00:00,Buena,A09_CABANYAL_60m,39.4743907853568,-0.328534813492744,2025-12-01 13:18:56.149983
583,18,Viveros,VIVERS,Urbana,0,23,19,,,,Fondo,2025-12-01 12:00:00,Buena,A06_VIVERS_60m,39.4796409248053,-0.36964822314381,2025-12-01 13:18:56.149983
584,12,Dr. Lluch,DR.LLUCH,Urbana,,50,,,26,7,Tráfico,2025-12-01 12:00:00,Razonablemente Buena,A08_DR_LLUCH_60m,39.4666847554611,-0.328289489402739,2025-12-01 13:22:41.991626
585,21,Olivereta,OLIVERETA,Urbana,,50,,,15,7,Tráfico,2025-12-01 12:00:00,Buena,A10_OLIVERETA_60m,39.4692442350919,-0.405923445529068,2025-12-01 13:22:41.991626
586,17,Universidad Politécnica,POLITÈCNIC,Suburbana,3,15,26,,9,5,Fondo,2025-12-01 12:00:00,Buena,A05_POLITECNIC_60m,39.4796444969291,-0.337400660521869,2025-12-01 13:22:41.991626
587,14,Boulevar Sur,BULEVARD SUD,Urbana,4,32,20,,,,Tráfico,2025-12-01 12:00:00,Buena,A02_BULEVARDSUD_60m,39.4503960055054,-0.396337564375856,2025-12-01 13:22:41.991626
588,22,Patraix,PATRAIX,Urbana,,56,,,18,8,Tráfico,2025-12-01 12:00:00,Razonablemente Buena,A11_PATRAIX_60m,39.4591890899964,-0.401411329219129,2025-12-01 13:22:41.991626
589,19,Centro,VALÈNCIA CENTRE,Urbana,,32,,,17,7,Tráfico,2025-12-01 12:00:00,Buena,A07_VALENCIACENTRE_60m,39.4705476702601,-0.376397651655324,2025-12-01 13:22:41.991626
590,13,Francia,AVDA.FRANCIA,Urbana,2,28,19,0,14,5,Tráfico,2025-12-01 12:00:00,Buena,A01_AVFRANCIA_60m,39.4578268875183,-0.342986232422652,2025-12-01 13:22:41.991626
591,15,Molí del Sol,MOLÍ DEL SOL,Suburbana,0,0,27,0,9,5,Tráfico,2025-12-01 12:00:00,Buena,A03_MOLISOL_60m,39.4811121109041,-0.408809896900938,2025-12-01 13:22:41.991626
592,16,Pista de Silla,PISTA DE SILLA,Urbana,2,33,33,0,12,6,Tráfico,2025-12-01 12:00:00,Buena,A04_PISTASILLA_60m,39.4580609536967,-0.376643936579157,2025-12-01 13:22:41.991626
593,20,Cabanyal,CABANYAL,Urbana,,36,,,16,6,Fondo,2025-12-01 12:00:00,Buena,A09_CABANYAL_60m,39.4743907853568,-0.328534813492744,2025-12-01 13:22:41.991626
594,18,Viveros,VIVERS,Urbana,0,23,19,,,,Fondo,2025-12-01 12:00:00,Buena,A06_VIVERS_60m,39.4796409248053,-0.36964822314381,2025-12-01 13:22:41.991626
595,19,Centro,VALÈNCIA CENTRE,Urbana,,25,,,18,7,Tráfico,2025-12-01 13:00:00,Buena,A07_VALENCIACENTRE_60m,39.4705476702601,-0.376397651655324,2025-12-01 13:37:54.479668
596,21,Olivereta,OLIVERETA,Urbana,,50,,,15,7,Tráfico,2025-12-01 13:00:00,Buena,A10_OLIVERETA_60m,39.4692442350919,-0.405923445529068,2025-12-01 13:37:54.479668
597,14,Boulevar Sur,BULEVARD SUD,Urbana,4,26,22,,,,Tráfico,2025-12-01 13:00:00,Buena,A02_BULEVARDSUD_60m,39.4503960055054,-0.396337564375856,2025-12-01 13:37:54.479668
598,12,Dr. Lluch,DR.LLUCH,Urbana,,38,,,26,7,Tráfico,2025-12-01 13:00:00,Razonablemente Buena,A08_DR_LLUCH_60m,39.4666847554611,-0.328289489402739,2025-12-01 13:37:54.479668
599,22,Patraix,PATRAIX,Urbana,,49,,,18,8,Tráfico,2025-12-01 13:00:00,Razonablemente Buena,A11_PATRAIX_60m,39.4591890899964,-0.401411329219129,2025-12-01 13:37:54.479668
600,15,Molí del Sol,MOLÍ DEL SOL,Suburbana,1,0,31,0,9,5,Tráfico,2025-12-01 13:00:00,Buena,A03_MOLISOL_60m,39.4811121109041,-0.408809896900938,2025-12-01 13:37:54.479668
601,20,Cabanyal,CABANYAL,Urbana,,30,,,17,6,Fondo,2025-12-01 13:00:00,Buena,A09_CABANYAL_60m,39.4743907853568,-0.328534813492744,2025-12-01 13:37:54.479668
602,18,Viveros,VIVERS,Urbana,0,11,20,,,,Fondo,2025-12-01 13:00:00,Buena,A06_VIVERS_60m,39.4796409248053,-0.36964822314381,2025-12-01 13:37:54.479668
603,13,Francia,AVDA.FRANCIA,Urbana,2,28,19,0,14,5,Tráfico,2025-12-01 12:00:00,Buena,A01_AVFRANCIA_60m,39.4578268875183,-0.342986232422652,2025-12-01 13:37:54.479668
604,16,Pista de Silla,PISTA DE SILLA,Urbana,2,23,33,0,13,7,Tráfico,2025-12-01 13:00:00,Buena,A04_PISTASILLA_60m,39.4580609536967,-0.376643936579157,2025-12-01 13:37:54.479668
605,17,Universidad Politécnica,POLITÈCNIC,Suburbana,2,13,26,,9,5,Fondo,2025-12-01 13:00:00,Buena,A05_POLITECNIC_60m,39.4796444969291,-0.337400660521869,2025-12-01 13:37:54.479668
606,19,Centro,VALÈNCIA CENTRE,Urbana,,25,,,18,7,Tráfico,2025-12-01 13:00:00,Buena,A07_VALENCIACENTRE_60m,39.4705476702601,-0.376397651655324,2025-12-01 13:43:33.455752
607,21,Olivereta,OLIVERETA,Urbana,,50,,,15,7,Tráfico,2025-12-01 13:00:00,Buena,A10_OLIVERETA_60m,39.4692442350919,-0.405923445529068,2025-12-01 13:43:33.455752
608,14,Boulevar Sur,BULEVARD SUD,Urbana,4,26,22,,,,Tráfico,2025-12-01 13:00:00,Buena,A02_BULEVARDSUD_60m,39.4503960055054,-0.396337564375856,2025-12-01 13:43:33.455752
609,12,Dr. Lluch,DR.LLUCH,Urbana,,38,,,26,7,Tráfico,2025-12-01 13:00:00,Razonablemente Buena,A08_DR_LLUCH_60m,39.4666847554611,-0.328289489402739,2025-12-01 13:43:33.455752
610,22,Patraix,PATRAIX,Urbana,,49,,,18,8,Tráfico,2025-12-01 13:00:00,Razonablemente Buena,A11_PATRAIX_60m,39.4591890899964,-0.401411329219129,2025-12-01 13:43:33.455752
611,15,Molí del Sol,MOLÍ DEL SOL,Suburbana,1,0,31,0,9,5,Tráfico,2025-12-01 13:00:00,Buena,A03_MOLISOL_60m,39.4811121109041,-0.408809896900938,2025-12-01 13:43:33.455752
612,20,Cabanyal,CABANYAL,Urbana,,30,,,17,6,Fondo,2025-12-01 13:00:00,Buena,A09_CABANYAL_60m,39.4743907853568,-0.328534813492744,2025-12-01 13:43:33.455752
613,18,Viveros,VIVERS,Urbana,0,11,20,,,,Fondo,2025-12-01 13:00:00,Buena,A06_VIVERS_60m,39.4796409248053,-0.36964822314381,2025-12-01 13:43:33.455752
614,13,Francia,AVDA.FRANCIA,Urbana,2,28,19,0,14,5,Tráfico,2025-12-01 12:00:00,Buena,A01_AVFRANCIA_60m,39.4578268875183,-0.342986232422652,2025-12-01 13:43:33.455752
615,16,Pista de Silla,PISTA DE SILLA,Urbana,2,23,33,0,13,7,Tráfico,2025-12-01 13:00:00,Buena,A04_PISTASILLA_60m,39.4580609536967,-0.376643936579157,2025-12-01 13:43:33.455752
616,17,Universidad Politécnica,POLITÈCNIC,Suburbana,2,13,26,,9,5,Fondo,2025-12-01 13:00:00,Buena,A05_POLITECNIC_60m,39.4796444969291,-0.337400660521869,2025-12-01 13:43:33.455752
617,19,Centro,VALÈNCIA CENTRE,Urbana,,25,,,18,7,Tráfico,2025-12-01 13:00:00,Buena,A07_VALENCIACENTRE_60m,39.4705476702601,-0.376397651655324,2025-12-01 13:52:55.112265
618,21,Olivereta,OLIVERETA,Urbana,,50,,,15,7,Tráfico,2025-12-01 13:00:00,Buena,A10_OLIVERETA_60m,39.4692442350919,-0.405923445529068,2025-12-01 13:52:55.112265
619,14,Boulevar Sur,BULEVARD SUD,Urbana,4,26,22,,,,Tráfico,2025-12-01 13:00:00,Buena,A02_BULEVARDSUD_60m,39.4503960055054,-0.396337564375856,2025-12-01 13:52:55.112265
620,12,Dr. Lluch,DR.LLUCH,Urbana,,38,,,26,7,Tráfico,2025-12-01 13:00:00,Razonablemente Buena,A08_DR_LLUCH_60m,39.4666847554611,-0.328289489402739,2025-12-01 13:52:55.112265
621,22,Patraix,PATRAIX,Urbana,,49,,,18,8,Tráfico,2025-12-01 13:00:00,Razonablemente Buena,A11_PATRAIX_60m,39.4591890899964,-0.401411329219129,2025-12-01 13:52:55.112265
622,15,Molí del Sol,MOLÍ DEL SOL,Suburbana,1,0,31,0,9,5,Tráfico,2025-12-01 13:00:00,Buena,A03_MOLISOL_60m,39.4811121109041,-0.408809896900938,2025-12-01 13:52:55.112265
623,20,Cabanyal,CABANYAL,Urbana,,30,,,17,6,Fondo,2025-12-01 13:00:00,Buena,A09_CABANYAL_60m,39.4743907853568,-0.328534813492744,2025-12-01 13:52:55.112265
624,18,Viveros,VIVERS,Urbana,0,11,20,,,,Fondo,2025-12-01 13:00:00,Buena,A06_VIVERS_60m,39.4796409248053,-0.36964822314381,2025-12-01 13:52:55.112265
625,13,Francia,AVDA.FRANCIA,Urbana,2,28,19,0,14,5,Tráfico,2025-12-01 12:00:00,Buena,A01_AVFRANCIA_60m,39.4578268875183,-0.342986232422652,2025-12-01 13:52:55.112265
626,16,Pista de Silla,PISTA DE SILLA,Urbana,2,23,33,0,13,7,Tráfico,2025-12-01 13:00:00,Buena,A04_PISTASILLA_60m,39.4580609536967,-0.376643936579157,2025-12-01 13:52:55.112265
627,17,Universidad Politécnica,POLITÈCNIC,Suburbana,2,13,26,,9,5,Fondo,2025-12-01 13:00:00,Buena,A05_POLITECNIC_60m,39.4796444969291,-0.337400660521869,2025-12-01 13:52:55.112265
628,19,Centro,VALÈNCIA CENTRE,Urbana,,25,,,18,7,Tráfico,2025-12-01 13:00:00,Buena,A07_VALENCIACENTRE_60m,39.4705476702601,-0.376397651655324,2025-12-01 14:24:43.422956
629,21,Olivereta,OLIVERETA,Urbana,,50,,,15,7,Tráfico,2025-12-01 13:00:00,Buena,A10_OLIVERETA_60m,39.4692442350919,-0.405923445529068,2025-12-01 14:24:43.422956
630,14,Boulevar Sur,BULEVARD SUD,Urbana,4,26,22,,,,Tráfico,2025-12-01 13:00:00,Buena,A02_BULEVARDSUD_60m,39.4503960055054,-0.396337564375856,2025-12-01 14:24:43.422956
631,12,Dr. Lluch,DR.LLUCH,Urbana,,38,,,26,7,Tráfico,2025-12-01 13:00:00,Razonablemente Buena,A08_DR_LLUCH_60m,39.4666847554611,-0.328289489402739,2025-12-01 14:24:43.422956
632,22,Patraix,PATRAIX,Urbana,,49,,,18,8,Tráfico,2025-12-01 13:00:00,Razonablemente Buena,A11_PATRAIX_60m,39.4591890899964,-0.401411329219129,2025-12-01 14:24:43.422956
633,15,Molí del Sol,MOLÍ DEL SOL,Suburbana,1,0,31,0,9,5,Tráfico,2025-12-01 13:00:00,Buena,A03_MOLISOL_60m,39.4811121109041,-0.408809896900938,2025-12-01 14:24:43.422956
634,20,Cabanyal,CABANYAL,Urbana,,30,,,17,6,Fondo,2025-12-01 13:00:00,Buena,A09_CABANYAL_60m,39.4743907853568,-0.328534813492744,2025-12-01 14:24:43.422956
635,18,Viveros,VIVERS,Urbana,0,11,20,,,,Fondo,2025-12-01 13:00:00,Buena,A06_VIVERS_60m,39.4796409248053,-0.36964822314381,2025-12-01 14:24:43.422956
636,13,Francia,AVDA.FRANCIA,Urbana,2,28,19,0,14,5,Tráfico,2025-12-01 12:00:00,Buena,A01_AVFRANCIA_60m,39.4578268875183,-0.342986232422652,2025-12-01 14:24:43.422956
637,16,Pista de Silla,PISTA DE SILLA,Urbana,2,23,33,0,13,7,Tráfico,2025-12-01 13:00:00,Buena,A04_PISTASILLA_60m,39.4580609536967,-0.376643936579157,2025-12-01 14:24:43.422956
638,17,Universidad Politécnica,POLITÈCNIC,Suburbana,2,13,26,,9,5,Fondo,2025-12-01 13:00:00,Buena,A05_POLITECNIC_60m,39.4796444969291,-0.337400660521869,2025-12-01 14:24:43.422956
